{
"type": "FeatureCollection",
"name": "gwangjin_safety_grid_cells_area_corrected_no_drop",
"crs": { "type": "name", "properties": { "name": "urn:ogc:def:crs:OGC:1.3:CRS84" } },
"features": [
{ "type": "Feature", "properties": { "grid_id": "G0001", "cell_area_m2": 3765.66047, "full_cell_area_m2": 250000, "area_ratio": 0.015063, "is_boundary_cell": true, "CCTV": 0, "가로등": 0, "경찰서": 0, "비상벨": 0, "지구대": null, "파출소": null, "CCTV보정개수": 0.0, "가로등보정개수": 0.0, "비상벨보정개수": 0.0, "경찰서보정개수": 0.0, "안전점수": 0.0, "안전등급": "E", "CCTV개수": 0, "가로등개수": 0, "비상벨개수": 0, "경찰서개수": 0, "전체시설개수": 0, "전체시설보정개수": 0.0 }, "geometry": { "type": "Polygon", "coordinates": [ [ [ 127.061884651996508, 37.526965669789575 ], [ 127.061887873166114, 37.526414889316868 ], [ 127.060489828071283, 37.526960487225516 ], [ 127.061884651996508, 37.526965669789575 ] ] ] } },
{ "type": "Feature", "properties": { "grid_id": "G0002", "cell_area_m2": 194150.10198100001, "full_cell_area_m2": 250000, "area_ratio": 0.7766, "is_boundary_cell": true, "CCTV": 0, "가로등": 0, "경찰서": 0, "비상벨": 0, "지구대": null, "파출소": null, "CCTV보정개수": 0.0, "가로등보정개수": 0.0, "비상벨보정개수": 0.0, "경찰서보정개수": 0.0, "안전점수": 0.0, "안전등급": "E", "CCTV개수": 0, "가로등개수": 0, "비상벨개수": 0, "경찰서개수": 0, "전체시설개수": 0, "전체시설보정개수": 0.0 }, "geometry": { "type": "Polygon", "coordinates": [ [ [ 127.061858291952305, 37.531472348686478 ], [ 127.061884651996508, 37.526965669789575 ], [ 127.060489828071283, 37.526960487225516 ], [ 127.060324043013225, 37.527025184492999 ], [ 127.057353656346848, 37.527963092745914 ], [ 127.056217910809735, 37.528316994218038 ], [ 127.057355450527567, 37.530385369928318 ], [ 127.05749149701731, 37.53063053809425 ], [ 127.057859130294105, 37.531294125562987 ], [ 127.057905431860846, 37.531377697683119 ], [ 127.057949839104509, 37.531457783491 ], [ 127.061858291952305, 37.531472348686478 ] ] ] } },
{ "type": "Feature", "properties": { "grid_id": "G0003", "cell_area_m2": 116227.357728, "full_cell_area_m2": 250000, "area_ratio": 0.464909, "is_boundary_cell": true, "CCTV": 3, "가로등": 8, "경찰서": 0, "비상벨": 2, "지구대": 0.0, "파출소": 0.0, "CCTV보정개수": 6.45287, "가로등보정개수": 17.207653, "비상벨보정개수": 4.301913, "경찰서보정개수": 0.0, "안전점수": 13.981218, "안전등급": "E", "CCTV개수": 3, "가로등개수": 8, "비상벨개수": 2, "경찰서개수": 0, "전체시설개수": 13, "전체시설보정개수": 27.962436 }, "geometry": { "type": "Polygon", "coordinates": [ [ [ 127.061831926036334, 37.535979024119769 ], [ 127.061858291952305, 37.531472348686478 ], [ 127.057949839104509, 37.531457783491 ], [ 127.058344570663792, 37.532169650021004 ], [ 127.058577410386221, 37.53258977026308 ], [ 127.058622058994686, 37.532669738906982 ], [ 127.058630329374409, 37.53268456526456 ], [ 127.058989821720147, 37.533328457190791 ], [ 127.059058025973115, 37.53345156277819 ], [ 127.059277209250723, 37.533846036912777 ], [ 127.059499284388821, 37.53424628456181 ], [ 127.059519558099296, 37.534244932126661 ], [ 127.059555110676513, 37.534308326581638 ], [ 127.06048930589256, 37.535974034806095 ], [ 127.061831926036334, 37.535979024119769 ] ] ] } },
{ "type": "Feature", "properties": { "grid_id": "G0004", "cell_area_m2": 15464.228063, "full_cell_area_m2": 250000, "area_ratio": 0.061857, "is_boundary_cell": true, "CCTV": 2, "가로등": 8, "경찰서": 0, "비상벨": 2, "지구대": 0.0, "파출소": 0.0, "CCTV보정개수": 32.332684, "가로등보정개수": 129.330736, "비상벨보정개수": 32.332684, "경찰서보정개수": 0.0, "안전점수": 72.632879, "안전등급": "B", "CCTV개수": 2, "가로등개수": 8, "비상벨개수": 2, "경찰서개수": 0, "전체시설개수": 12, "전체시설보정개수": 193.996104 }, "geometry": { "type": "Polygon", "coordinates": [ [ [ 127.061831926036334, 37.535979024119769 ], [ 127.06048930589256, 37.535974034806095 ], [ 127.060702206430378, 37.536353633803536 ], [ 127.060717037792713, 37.536380034479237 ], [ 127.061571711450483, 37.537901542369767 ], [ 127.061595669229504, 37.537907512777636 ], [ 127.061818278084772, 37.538311446718374 ], [ 127.061831926036334, 37.535979024119769 ] ] ] } },
{ "type": "Feature", "properties": { "grid_id": "G0005", "cell_area_m2": 88139.253178, "full_cell_area_m2": 250000, "area_ratio": 0.352557, "is_boundary_cell": true, "CCTV": 0, "가로등": 0, "경찰서": 0, "비상벨": 0, "지구대": null, "파출소": null, "CCTV보정개수": 0.0, "가로등보정개수": 0.0, "비상벨보정개수": 0.0, "경찰서보정개수": 0.0, "안전점수": 0.0, "안전등급": "E", "CCTV개수": 0, "가로등개수": 0, "비상벨개수": 0, "경찰서개수": 0, "전체시설개수": 0, "전체시설보정개수": 0.0 }, "geometry": { "type": "Polygon", "coordinates": [ [ [ 127.061884651996508, 37.526965669789575 ], [ 127.067543268389642, 37.526986525786306 ], [ 127.067557421684526, 37.524534705308369 ], [ 127.067455940356936, 37.52459568814708 ], [ 127.06543208246319, 37.525056091810399 ], [ 127.06300857157585, 37.525977510312842 ], [ 127.061887873166114, 37.526414889316868 ], [ 127.061884651996508, 37.526965669789575 ] ] ] } },
{ "type": "Feature", "properties": { "grid_id": "G0006", "cell_area_m2": 250000.0, "full_cell_area_m2": 250000, "area_ratio": 1.0, "is_boundary_cell": false, "CCTV": 0, "가로등": 0, "경찰서": 0, "비상벨": 0, "지구대": null, "파출소": null, "CCTV보정개수": 0.0, "가로등보정개수": 0.0, "비상벨보정개수": 0.0, "경찰서보정개수": 0.0, "안전점수": 0.0, "안전등급": "E", "CCTV개수": 0, "가로등개수": 0, "비상벨개수": 0, "경찰서개수": 0, "전체시설개수": 0, "전체시설보정개수": 0.0 }, "geometry": { "type": "Polygon", "coordinates": [ [ [ 127.061884651996508, 37.526965669789575 ], [ 127.061858291952305, 37.531472348686478 ], [ 127.067517248780817, 37.531493208057938 ], [ 127.067543268389642, 37.526986525786306 ], [ 127.061884651996508, 37.526965669789575 ] ] ] } },
{ "type": "Feature", "properties": { "grid_id": "G0007", "cell_area_m2": 250000.0, "full_cell_area_m2": 250000, "area_ratio": 1.0, "is_boundary_cell": false, "CCTV": 27, "가로등": 25, "경찰서": 0, "비상벨": 25, "지구대": 0.0, "파출소": 1.0, "CCTV보정개수": 27.0, "가로등보정개수": 25.0, "비상벨보정개수": 25.0, "경찰서보정개수": 0.0, "안전점수": 46.4, "안전등급": "D", "CCTV개수": 27, "가로등개수": 25, "비상벨개수": 25, "경찰서개수": 0, "전체시설개수": 77, "전체시설보정개수": 77.0 }, "geometry": { "type": "Polygon", "coordinates": [ [ [ 127.061858291952305, 37.531472348686478 ], [ 127.061831926036334, 37.535979024119769 ], [ 127.067491223376067, 37.53599988686635 ], [ 127.067517248780817, 37.531493208057938 ], [ 127.061858291952305, 37.531472348686478 ] ] ] } },
{ "type": "Feature", "properties": { "grid_id": "G0008", "cell_area_m2": 237034.06271, "full_cell_area_m2": 250000, "area_ratio": 0.948136, "is_boundary_cell": true, "CCTV": 32, "가로등": 31, "경찰서": 0, "비상벨": 26, "지구대": 0.0, "파출소": 0.0, "CCTV보정개수": 33.750423, "가로등보정개수": 32.695723, "비상벨보정개수": 27.422219, "경찰서보정개수": 0.0, "안전점수": 53.434013, "안전등급": "D", "CCTV개수": 32, "가로등개수": 31, "비상벨개수": 26, "경찰서개수": 0, "전체시설개수": 89, "전체시설보정개수": 93.868365 }, "geometry": { "type": "Polygon", "coordinates": [ [ [ 127.067465192173984, 37.540506562211384 ], [ 127.067491223376067, 37.53599988686635 ], [ 127.061831926036334, 37.535979024119769 ], [ 127.061818278084772, 37.538311446718374 ], [ 127.062263840245549, 37.53911992532727 ], [ 127.062292996094953, 37.539172825628839 ], [ 127.062513847611683, 37.539573536380786 ], [ 127.062710449765149, 37.539927948239949 ], [ 127.063020473569068, 37.540473671547687 ], [ 127.063029829012265, 37.540490232774651 ], [ 127.067465192173984, 37.540506562211384 ] ] ] } },
{ "type": "Feature", "properties": { "grid_id": "G0009", "cell_area_m2": 138856.48793, "full_cell_area_m2": 250000, "area_ratio": 0.555426, "is_boundary_cell": true, "CCTV": 19, "가로등": 38, "경찰서": 0, "비상벨": 15, "지구대": 0.0, "파출소": 0.0, "CCTV보정개수": 34.20798, "가로등보정개수": 68.415961, "비상벨보정개수": 27.0063, "경찰서보정개수": 0.0, "안전점수": 64.470374, "안전등급": "C", "CCTV개수": 19, "가로등개수": 38, "비상벨개수": 15, "경찰서개수": 0, "전체시설개수": 72, "전체시설보정개수": 129.630241 }, "geometry": { "type": "Polygon", "coordinates": [ [ [ 127.067439155173247, 37.545013234092899 ], [ 127.067465192173984, 37.540506562211384 ], [ 127.063029829012265, 37.540490232774651 ], [ 127.063566033514206, 37.541439421242458 ], [ 127.06396824169353, 37.542145767395851 ], [ 127.064014272716022, 37.542227895517257 ], [ 127.064047521213936, 37.542287253305076 ], [ 127.0640887805164, 37.542359608156353 ], [ 127.064586093193711, 37.543240865316037 ], [ 127.064598076194542, 37.543240858915894 ], [ 127.064845936999859, 37.543692195350424 ], [ 127.065153192085887, 37.54424539241554 ], [ 127.065585811313326, 37.545006430309392 ], [ 127.067439155173247, 37.545013234092899 ] ] ] } },
{ "type": "Feature", "properties": { "grid_id": "G0010", "cell_area_m2": 29485.99125, "full_cell_area_m2": 250000, "area_ratio": 0.117944, "is_boundary_cell": true, "CCTV": 3, "가로등": 13, "경찰서": 0, "비상벨": 3, "지구대": 0.0, "파출소": 0.0, "CCTV보정개수": 25.435808, "가로등보정개수": 110.221833, "비상벨보정개수": 25.435808, "경찰서보정개수": 0.0, "안전점수": 67.805065, "안전등급": "C", "CCTV개수": 3, "가로등개수": 13, "비상벨개수": 3, "경찰서개수": 0, "전체시설개수": 19, "전체시설보정개수": 161.093448 }, "geometry": { "type": "Polygon", "coordinates": [ [ [ 127.067439155173247, 37.545013234092899 ], [ 127.065585811313326, 37.545006430309392 ], [ 127.065606202007544, 37.545042299980842 ], [ 127.065853529171633, 37.545490679194238 ], [ 127.066620509622439, 37.546843728460495 ], [ 127.066944682418381, 37.547406218470982 ], [ 127.067258059730108, 37.547963253538654 ], [ 127.067420453298283, 37.54824966802223 ], [ 127.067439155173247, 37.545013234092899 ] ] ] } },
{ "type": "Feature", "properties": { "grid_id": "G0011", "cell_area_m2": 184276.03523000001, "full_cell_area_m2": 250000, "area_ratio": 0.737104, "is_boundary_cell": true, "CCTV": 0, "가로등": 0, "경찰서": 0, "비상벨": 0, "지구대": null, "파출소": null, "CCTV보정개수": 0.0, "가로등보정개수": 0.0, "비상벨보정개수": 0.0, "경찰서보정개수": 0.0, "안전점수": 0.0, "안전등급": "E", "CCTV개수": 0, "가로등개수": 0, "비상벨개수": 0, "경찰서개수": 0, "전체시설개수": 0, "전체시설보정개수": 0.0 }, "geometry": { "type": "Polygon", "coordinates": [ [ [ 127.067543268389642, 37.526986525786306 ], [ 127.073201890577337, 37.527007110674532 ], [ 127.073223974760865, 37.523130538547562 ], [ 127.07205006694889, 37.52341478489965 ], [ 127.068663077977419, 37.523870274750074 ], [ 127.067557421684526, 37.524534705308369 ], [ 127.067543268389642, 37.526986525786306 ] ] ] } },
{ "type": "Feature", "properties": { "grid_id": "G0012", "cell_area_m2": 250000.0, "full_cell_area_m2": 250000, "area_ratio": 1.0, "is_boundary_cell": false, "CCTV": 3, "가로등": 3, "경찰서": 0, "비상벨": 3, "지구대": 0.0, "파출소": 0.0, "CCTV보정개수": 3.0, "가로등보정개수": 3.0, "비상벨보정개수": 3.0, "경찰서보정개수": 0.0, "안전점수": 6.0, "안전등급": "E", "CCTV개수": 3, "가로등개수": 3, "비상벨개수": 3, "경찰서개수": 0, "전체시설개수": 9, "전체시설보정개수": 9.0 }, "geometry": { "type": "Polygon", "coordinates": [ [ [ 127.067543268389642, 37.526986525786306 ], [ 127.067517248780817, 37.531493208057938 ], [ 127.073176211405283, 37.531513796277032 ], [ 127.073201890577337, 37.527007110674532 ], [ 127.067543268389642, 37.526986525786306 ] ] ] } },
{ "type": "Feature", "properties": { "grid_id": "G0013", "cell_area_m2": 250000.0, "full_cell_area_m2": 250000, "area_ratio": 1.0, "is_boundary_cell": false, "CCTV": 27, "가로등": 89, "경찰서": 0, "비상벨": 22, "지구대": 0.0, "파출소": 1.0, "CCTV보정개수": 27.0, "가로등보정개수": 89.0, "비상벨보정개수": 22.0, "경찰서보정개수": 0.0, "안전점수": 65.6, "안전등급": "C", "CCTV개수": 27, "가로등개수": 89, "비상벨개수": 22, "경찰서개수": 0, "전체시설개수": 138, "전체시설보정개수": 138.0 }, "geometry": { "type": "Polygon", "coordinates": [ [ [ 127.067517248780817, 37.531493208057938 ], [ 127.067491223376067, 37.53599988686635 ], [ 127.073150526513118, 37.536020478416695 ], [ 127.073176211405283, 37.531513796277032 ], [ 127.067517248780817, 37.531493208057938 ] ] ] } },
{ "type": "Feature", "properties": { "grid_id": "G0014", "cell_area_m2": 250000.0, "full_cell_area_m2": 250000, "area_ratio": 1.0, "is_boundary_cell": false, "CCTV": 23, "가로등": 64, "경찰서": 0, "비상벨": 16, "지구대": 0.0, "파출소": 0.0, "CCTV보정개수": 23.0, "가로등보정개수": 64.0, "비상벨보정개수": 16.0, "경찰서보정개수": 0.0, "안전점수": 51.3, "안전등급": "D", "CCTV개수": 23, "가로등개수": 64, "비상벨개수": 16, "경찰서개수": 0, "전체시설개수": 103, "전체시설보정개수": 103.0 }, "geometry": { "type": "Polygon", "coordinates": [ [ [ 127.067491223376067, 37.53599988686635 ], [ 127.067465192173984, 37.540506562211384 ], [ 127.073124835899463, 37.540527157093386 ], [ 127.073150526513118, 37.536020478416695 ], [ 127.067491223376067, 37.53599988686635 ] ] ] } },
{ "type": "Feature", "properties": { "grid_id": "G0015", "cell_area_m2": 250000.0, "full_cell_area_m2": 250000, "area_ratio": 1.0, "is_boundary_cell": false, "CCTV": 32, "가로등": 44, "경찰서": 0, "비상벨": 25, "지구대": 0.0, "파출소": 0.0, "CCTV보정개수": 32.0, "가로등보정개수": 44.0, "비상벨보정개수": 25.0, "경찰서보정개수": 0.0, "안전점수": 55.6, "안전등급": "C", "CCTV개수": 32, "가로등개수": 44, "비상벨개수": 25, "경찰서개수": 0, "전체시설개수": 101, "전체시설보정개수": 101.0 }, "geometry": { "type": "Polygon", "coordinates": [ [ [ 127.067465192173984, 37.540506562211384 ], [ 127.067439155173247, 37.545013234092899 ], [ 127.073099139563013, 37.545033832306942 ], [ 127.073124835899463, 37.540527157093386 ], [ 127.067465192173984, 37.540506562211384 ] ] ] } },
{ "type": "Feature", "properties": { "grid_id": "G0016", "cell_area_m2": 245504.96167399999, "full_cell_area_m2": 250000, "area_ratio": 0.98202, "is_boundary_cell": true, "CCTV": 32, "가로등": 81, "경찰서": 0, "비상벨": 29, "지구대": 1.0, "파출소": 0.0, "CCTV보정개수": 32.585899, "가로등보정개수": 82.483058, "비상벨보정개수": 29.530971, "경찰서보정개수": 0.0, "안전점수": 67.555047, "안전등급": "C", "CCTV개수": 32, "가로등개수": 81, "비상벨개수": 29, "경찰서개수": 0, "전체시설개수": 142, "전체시설보정개수": 144.599929 }, "geometry": { "type": "Polygon", "coordinates": [ [ [ 127.073073437502416, 37.549540504057241 ], [ 127.073099139563013, 37.545033832306942 ], [ 127.067439155173247, 37.545013234092899 ], [ 127.067420453298283, 37.54824966802223 ], [ 127.067465772830545, 37.548329597916236 ], [ 127.067537475154353, 37.54846141792359 ], [ 127.067638509921807, 37.548645145588814 ], [ 127.068140741375544, 37.549522566017316 ], [ 127.073073437502416, 37.549540504057241 ] ] ] } },
{ "type": "Feature", "properties": { "grid_id": "G0017", "cell_area_m2": 160616.013721, "full_cell_area_m2": 250000, "area_ratio": 0.642464, "is_boundary_cell": true, "CCTV": 21, "가로등": 36, "경찰서": 0, "비상벨": 18, "지구대": 0.0, "파출소": 0.0, "CCTV보정개수": 32.686654, "가로등보정개수": 56.034263, "비상벨보정개수": 28.017132, "경찰서보정개수": 0.0, "안전점수": 59.690936, "안전등급": "C", "CCTV개수": 21, "가로등개수": 36, "비상벨개수": 18, "경찰서개수": 0, "전체시설개수": 75, "전체시설보정개수": 116.738049 }, "geometry": { "type": "Polygon", "coordinates": [ [ [ 127.073047729716279, 37.55404717234412 ], [ 127.073073437502416, 37.549540504057241 ], [ 127.068140741375544, 37.549522566017316 ], [ 127.068708166275371, 37.550513855041785 ], [ 127.068736921716393, 37.550564510406751 ], [ 127.068974050669638, 37.550982146644891 ], [ 127.069006212652084, 37.551045233667864 ], [ 127.069283766533601, 37.551536610253414 ], [ 127.06941753947514, 37.551772322690574 ], [ 127.069437126012531, 37.551806819371805 ], [ 127.069511165061712, 37.551937177150982 ], [ 127.069541440432914, 37.551990471334861 ], [ 127.069650901441733, 37.552183211226364 ], [ 127.06972790079277, 37.552307602594709 ], [ 127.06981166766883, 37.552456614070437 ], [ 127.069902280915088, 37.552617316376256 ], [ 127.069906372910054, 37.552624566980846 ], [ 127.06992080233843, 37.552649867449254 ], [ 127.069929870332587, 37.552665773690116 ], [ 127.070200964558126, 37.553146474983812 ], [ 127.070220064619846, 37.553180350126318 ], [ 127.070312723825182, 37.5533611520042 ], [ 127.070704055106788, 37.554038674266849 ], [ 127.073047729716279, 37.55404717234412 ] ] ] } },
{ "type": "Feature", "properties": { "grid_id": "G0018", "cell_area_m2": 46861.617265000001, "full_cell_area_m2": 250000, "area_ratio": 0.187446, "is_boundary_cell": true, "CCTV": 9, "가로등": 16, "경찰서": 0, "비상벨": 6, "지구대": 0.0, "파출소": 0.0, "CCTV보정개수": 48.013708, "가로등보정개수": 85.357703, "비상벨보정개수": 32.009139, "경찰서보정개수": 0.0, "안전점수": 79.216906, "안전등급": "B", "CCTV개수": 9, "가로등개수": 16, "비상벨개수": 6, "경찰서개수": 0, "전체시설개수": 31, "전체시설보정개수": 165.380549 }, "geometry": { "type": "Polygon", "coordinates": [ [ [ 127.073047729716279, 37.55404717234412 ], [ 127.070704055106788, 37.554038674266849 ], [ 127.071750702724074, 37.555850696720618 ], [ 127.072033995487459, 37.55635306409949 ], [ 127.072069092783622, 37.556415319564721 ], [ 127.072121534758793, 37.556508315437952 ], [ 127.072086099845407, 37.556508183451875 ], [ 127.07273852764493, 37.557652084962839 ], [ 127.072764023764876, 37.557697137092447 ], [ 127.073024281325942, 37.558156882140956 ], [ 127.073047729716279, 37.55404717234412 ] ] ] } },
{ "type": "Feature", "properties": { "grid_id": "G0019", "cell_area_m2": 5664.921129, "full_cell_area_m2": 250000, "area_ratio": 0.02266, "is_boundary_cell": true, "CCTV": 0, "가로등": 0, "경찰서": 0, "비상벨": 0, "지구대": null, "파출소": null, "CCTV보정개수": 0.0, "가로등보정개수": 0.0, "비상벨보정개수": 0.0, "경찰서보정개수": 0.0, "안전점수": 0.0, "안전등급": "E", "CCTV개수": 0, "가로등개수": 0, "비상벨개수": 0, "경찰서개수": 0, "전체시설개수": 0, "전체시설보정개수": 0.0 }, "geometry": { "type": "Polygon", "coordinates": [ [ [ 127.07301544227991, 37.559705850600928 ], [ 127.072986895088277, 37.55971743567256 ], [ 127.072977210689814, 37.55972132479863 ], [ 127.072483463603177, 37.559919795216182 ], [ 127.072384865471648, 37.559959425891186 ], [ 127.072429622033411, 37.560060760334991 ], [ 127.072521619447528, 37.560269004796936 ], [ 127.072647804840216, 37.56061568362685 ], [ 127.072703363106129, 37.560768331800837 ], [ 127.07272316488185, 37.560822748626919 ], [ 127.073004673872163, 37.561592762693216 ], [ 127.07301544227991, 37.559705850600928 ] ] ] } },
{ "type": "Feature", "properties": { "grid_id": "G0020", "cell_area_m2": 237443.05052700001, "full_cell_area_m2": 250000, "area_ratio": 0.949772, "is_boundary_cell": true, "CCTV": 0, "가로등": 0, "경찰서": 0, "비상벨": 0, "지구대": null, "파출소": null, "CCTV보정개수": 0.0, "가로등보정개수": 0.0, "비상벨보정개수": 0.0, "경찰서보정개수": 0.0, "안전점수": 0.0, "안전등급": "E", "CCTV개수": 0, "가로등개수": 0, "비상벨개수": 0, "경찰서개수": 0, "전체시설개수": 0, "전체시설보정개수": 0.0 }, "geometry": { "type": "Polygon", "coordinates": [ [ [ 127.073201890577337, 37.527007110674532 ], [ 127.078860518483793, 37.527027424453401 ], [ 127.078884314876419, 37.522794135526958 ], [ 127.076942090757001, 37.522513785515493 ], [ 127.074318337421488, 37.522865540517678 ], [ 127.073223974760865, 37.523130538547562 ], [ 127.073201890577337, 37.527007110674532 ] ] ] } },
{ "type": "Feature", "properties": { "grid_id": "G0021", "cell_area_m2": 250000.0, "full_cell_area_m2": 250000, "area_ratio": 1.0, "is_boundary_cell": false, "CCTV": 20, "가로등": 11, "경찰서": 0, "비상벨": 19, "지구대": 0.0, "파출소": 0.0, "CCTV보정개수": 20.0, "가로등보정개수": 11.0, "비상벨보정개수": 19.0, "경찰서보정개수": 0.0, "안전점수": 36.3, "안전등급": "E", "CCTV개수": 20, "가로등개수": 11, "비상벨개수": 19, "경찰서개수": 0, "전체시설개수": 50, "전체시설보정개수": 50.0 }, "geometry": { "type": "Polygon", "coordinates": [ [ [ 127.073201890577337, 37.527007110674532 ], [ 127.073176211405283, 37.531513796277032 ], [ 127.078835179749873, 37.5315341133429 ], [ 127.078860518483793, 37.527027424453401 ], [ 127.073201890577337, 37.527007110674532 ] ] ] } },
{ "type": "Feature", "properties": { "grid_id": "G0022", "cell_area_m2": 250000.0, "full_cell_area_m2": 250000, "area_ratio": 1.0, "is_boundary_cell": false, "CCTV": 25, "가로등": 53, "경찰서": 0, "비상벨": 20, "지구대": 0.0, "파출소": 0.0, "CCTV보정개수": 25.0, "가로등보정개수": 53.0, "비상벨보정개수": 20.0, "경찰서보정개수": 0.0, "안전점수": 53.4, "안전등급": "D", "CCTV개수": 25, "가로등개수": 53, "비상벨개수": 20, "경찰서개수": 0, "전체시설개수": 98, "전체시설보정개수": 98.0 }, "geometry": { "type": "Polygon", "coordinates": [ [ [ 127.073176211405283, 37.531513796277032 ], [ 127.073150526513118, 37.536020478416695 ], [ 127.078809835371629, 37.536040798769946 ], [ 127.078835179749873, 37.5315341133429 ], [ 127.073176211405283, 37.531513796277032 ] ] ] } },
{ "type": "Feature", "properties": { "grid_id": "G0023", "cell_area_m2": 250000.0, "full_cell_area_m2": 250000, "area_ratio": 1.0, "is_boundary_cell": false, "CCTV": 17, "가로등": 65, "경찰서": 0, "비상벨": 17, "지구대": 0.0, "파출소": 1.0, "CCTV보정개수": 17.0, "가로등보정개수": 65.0, "비상벨보정개수": 17.0, "경찰서보정개수": 0.0, "안전점수": 48.4, "안전등급": "D", "CCTV개수": 17, "가로등개수": 65, "비상벨개수": 17, "경찰서개수": 0, "전체시설개수": 99, "전체시설보정개수": 99.0 }, "geometry": { "type": "Polygon", "coordinates": [ [ [ 127.073150526513118, 37.536020478416695 ], [ 127.073124835899463, 37.540527157093386 ], [ 127.078784485347768, 37.540547480734396 ], [ 127.078809835371629, 37.536040798769946 ], [ 127.073150526513118, 37.536020478416695 ] ] ] } },
{ "type": "Feature", "properties": { "grid_id": "G0024", "cell_area_m2": 250000.0, "full_cell_area_m2": 250000, "area_ratio": 1.0, "is_boundary_cell": false, "CCTV": 2, "가로등": 1, "경찰서": 0, "비상벨": 2, "지구대": 0.0, "파출소": 0.0, "CCTV보정개수": 2.0, "가로등보정개수": 1.0, "비상벨보정개수": 2.0, "경찰서보정개수": 0.0, "안전점수": 3.7, "안전등급": "E", "CCTV개수": 2, "가로등개수": 1, "비상벨개수": 2, "경찰서개수": 0, "전체시설개수": 5, "전체시설보정개수": 5.0 }, "geometry": { "type": "Polygon", "coordinates": [ [ [ 127.073124835899463, 37.540527157093386 ], [ 127.073099139563013, 37.545033832306942 ], [ 127.078759129676982, 37.545054159236123 ], [ 127.078784485347768, 37.540547480734396 ], [ 127.073124835899463, 37.540527157093386 ] ] ] } },
{ "type": "Feature", "properties": { "grid_id": "G0025", "cell_area_m2": 250000.0, "full_cell_area_m2": 250000, "area_ratio": 1.0, "is_boundary_cell": false, "CCTV": 19, "가로등": 76, "경찰서": 0, "비상벨": 16, "지구대": 0.0, "파출소": 0.0, "CCTV보정개수": 19.0, "가로등보정개수": 76.0, "비상벨보정개수": 16.0, "경찰서보정개수": 0.0, "안전점수": 52.1, "안전등급": "D", "CCTV개수": 19, "가로등개수": 76, "비상벨개수": 16, "경찰서개수": 0, "전체시설개수": 111, "전체시설보정개수": 111.0 }, "geometry": { "type": "Polygon", "coordinates": [ [ [ 127.073099139563013, 37.545033832306942 ], [ 127.073073437502416, 37.549540504057241 ], [ 127.078733768357907, 37.549560834274963 ], [ 127.078759129676982, 37.545054159236123 ], [ 127.073099139563013, 37.545033832306942 ] ] ] } },
{ "type": "Feature", "properties": { "grid_id": "G0026", "cell_area_m2": 250000.0, "full_cell_area_m2": 250000, "area_ratio": 1.0, "is_boundary_cell": false, "CCTV": 16, "가로등": 41, "경찰서": 0, "비상벨": 13, "지구대": 0.0, "파출소": 0.0, "CCTV보정개수": 16.0, "가로등보정개수": 41.0, "비상벨보정개수": 13.0, "경찰서보정개수": 0.0, "안전점수": 36.5, "안전등급": "E", "CCTV개수": 16, "가로등개수": 41, "비상벨개수": 13, "경찰서개수": 0, "전체시설개수": 70, "전체시설보정개수": 70.0 }, "geometry": { "type": "Polygon", "coordinates": [ [ [ 127.073073437502416, 37.549540504057241 ], [ 127.073047729716279, 37.55404717234412 ], [ 127.078708401389193, 37.554067505850796 ], [ 127.078733768357907, 37.549560834274963 ], [ 127.073073437502416, 37.549540504057241 ] ] ] } },
{ "type": "Feature", "properties": { "grid_id": "G0027", "cell_area_m2": 249557.634857, "full_cell_area_m2": 250000, "area_ratio": 0.998231, "is_boundary_cell": true, "CCTV": 37, "가로등": 74, "경찰서": 0, "비상벨": 33, "지구대": 0.0, "파출소": 0.0, "CCTV보정개수": 37.065586, "가로등보정개수": 74.131172, "비상벨보정개수": 33.058496, "경찰서보정개수": 0.0, "안전점수": 68.185262, "안전등급": "C", "CCTV개수": 37, "가로등개수": 74, "비상벨개수": 33, "경찰서개수": 0, "전체시설개수": 144, "전체시설보정개수": 144.255254 }, "geometry": { "type": "Polygon", "coordinates": [ [ [ 127.078683028769589, 37.558574173963464 ], [ 127.078708401389193, 37.554067505850796 ], [ 127.073047729716279, 37.55404717234412 ], [ 127.073024281325942, 37.558156882140956 ], [ 127.073249462356529, 37.5585546594858 ], [ 127.078683028769589, 37.558574173963464 ] ] ] } },
{ "type": "Feature", "properties": { "grid_id": "G0028", "cell_area_m2": 241086.31623, "full_cell_area_m2": 250000, "area_ratio": 0.964345, "is_boundary_cell": true, "CCTV": 19, "가로등": 73, "경찰서": 0, "비상벨": 14, "지구대": 0.0, "파출소": 0.0, "CCTV보정개수": 19.702487, "가로등보정개수": 75.699029, "비상벨보정개수": 14.517622, "경찰서보정개수": 0.0, "안전점수": 51.019071, "안전등급": "D", "CCTV개수": 19, "가로등개수": 73, "비상벨개수": 14, "경찰서개수": 0, "전체시설개수": 106, "전체시설보정개수": 109.919138 }, "geometry": { "type": "Polygon", "coordinates": [ [ [ 127.078657650497689, 37.563080838612805 ], [ 127.078683028769589, 37.558574173963464 ], [ 127.073249462356529, 37.5585546594858 ], [ 127.073735710239944, 37.559413589858018 ], [ 127.073637215586999, 37.559453518844947 ], [ 127.07301544227991, 37.559705850600928 ], [ 127.073004673872163, 37.561592762693216 ], [ 127.073068351673044, 37.561766938879607 ], [ 127.073075988970402, 37.561788008388348 ], [ 127.073253962384669, 37.562278299776452 ], [ 127.073518345380378, 37.563006903846961 ], [ 127.073531211007946, 37.563038673882566 ], [ 127.073539831946604, 37.563062463118136 ], [ 127.078657650497689, 37.563080838612805 ] ] ] } },
{ "type": "Feature", "properties": { "grid_id": "G0029", "cell_area_m2": 168578.31282399999, "full_cell_area_m2": 250000, "area_ratio": 0.674313, "is_boundary_cell": true, "CCTV": 13, "가로등": 81, "경찰서": 0, "비상벨": 9, "지구대": 0.0, "파출소": 0.0, "CCTV보정개수": 19.278874, "가로등보정개수": 120.122213, "비상벨보정개수": 13.346913, "경찰서보정개수": 0.0, "안전점수": 56.842124, "안전등급": "C", "CCTV개수": 13, "가로등개수": 81, "비상벨개수": 9, "경찰서개수": 0, "전체시설개수": 103, "전체시설보정개수": 152.747999 }, "geometry": { "type": "Polygon", "coordinates": [ [ [ 127.0786322665722, 37.567587499798691 ], [ 127.078657650497689, 37.563080838612805 ], [ 127.073539831946604, 37.563062463118136 ], [ 127.073569603144946, 37.56314461577481 ], [ 127.073610865348428, 37.563257196188829 ], [ 127.073729536249857, 37.563582687010815 ], [ 127.073787731534139, 37.563742279606927 ], [ 127.073909381831484, 37.564080580458061 ], [ 127.07399145868122, 37.564308840671295 ], [ 127.074025738384776, 37.564409532151295 ], [ 127.074079507725259, 37.564567433439628 ], [ 127.074091641864541, 37.564603033057203 ], [ 127.074133974167879, 37.564650335968352 ], [ 127.074643094760575, 37.565237961922989 ], [ 127.074823037619296, 37.565455195828164 ], [ 127.075256016776564, 37.565974787610415 ], [ 127.075725154672128, 37.566540134258716 ], [ 127.076146407583238, 37.567047377493388 ], [ 127.076177764930819, 37.567085136110791 ], [ 127.076352945091912, 37.567296081725232 ], [ 127.07658899055717, 37.567580189294169 ], [ 127.0786322665722, 37.567587499798691 ] ] ] } },
{ "type": "Feature", "properties": { "grid_id": "G0030", "cell_area_m2": 48088.45096, "full_cell_area_m2": 250000, "area_ratio": 0.192354, "is_boundary_cell": true, "CCTV": 3, "가로등": 15, "경찰서": 0, "비상벨": 2, "지구대": 0.0, "파출소": 0.0, "CCTV보정개수": 15.59626, "가로등보정개수": 77.981302, "비상벨보정개수": 10.397507, "경찰서보정개수": 0.0, "안전점수": 44.70928, "안전등급": "D", "CCTV개수": 3, "가로등개수": 15, "비상벨개수": 2, "경찰서개수": 0, "전체시설개수": 20, "전체시설보정개수": 103.975069 }, "geometry": { "type": "Polygon", "coordinates": [ [ [ 127.0786322665722, 37.567587499798691 ], [ 127.07658899055717, 37.567580189294169 ], [ 127.076805756937077, 37.567841089977854 ], [ 127.07687868389516, 37.567928880794767 ], [ 127.076883157317837, 37.567942464841693 ], [ 127.076907114001457, 37.568015213355245 ], [ 127.077024740971453, 37.568372515150031 ], [ 127.077034664367915, 37.568402646856967 ], [ 127.077602854094849, 37.570105095356595 ], [ 127.07778141576317, 37.570624156374919 ], [ 127.077917823218002, 37.571029999214041 ], [ 127.078040266462239, 37.571394288356842 ], [ 127.078048271039748, 37.571417961124688 ], [ 127.078200847267908, 37.571869247923651 ], [ 127.078585912882517, 37.57181672189413 ], [ 127.078608451130592, 37.571814776727798 ], [ 127.0786322665722, 37.567587499798691 ] ] ] } },
{ "type": "Feature", "properties": { "grid_id": "G0031", "cell_area_m2": 192544.6418, "full_cell_area_m2": 250000, "area_ratio": 0.770179, "is_boundary_cell": true, "CCTV": 0, "가로등": 0, "경찰서": 0, "비상벨": 0, "지구대": null, "파출소": null, "CCTV보정개수": 0.0, "가로등보정개수": 0.0, "비상벨보정개수": 0.0, "경찰서보정개수": 0.0, "안전점수": 0.0, "안전등급": "E", "CCTV개수": 0, "가로등개수": 0, "비상벨개수": 0, "경찰서개수": 0, "전체시설개수": 0, "전체시설보정개수": 0.0 }, "geometry": { "type": "Polygon", "coordinates": [ [ [ 127.078860518483793, 37.527027424453401 ], [ 127.084519152033224, 37.527047467122074 ], [ 127.084533672082856, 37.524429330309815 ], [ 127.082387209413966, 37.523786325345547 ], [ 127.081127336008521, 37.523409015598517 ], [ 127.079974587071476, 37.522951495779829 ], [ 127.078884314876419, 37.522794135526958 ], [ 127.078860518483793, 37.527027424453401 ] ] ] } },
{ "type": "Feature", "properties": { "grid_id": "G0032", "cell_area_m2": 250000.0, "full_cell_area_m2": 250000, "area_ratio": 1.0, "is_boundary_cell": false, "CCTV": 25, "가로등": 10, "경찰서": 0, "비상벨": 21, "지구대": 0.0, "파출소": 0.0, "CCTV보정개수": 25.0, "가로등보정개수": 10.0, "비상벨보정개수": 21.0, "경찰서보정개수": 0.0, "안전점수": 40.5, "안전등급": "D", "CCTV개수": 25, "가로등개수": 10, "비상벨개수": 21, "경찰서개수": 0, "전체시설개수": 56, "전체시설보정개수": 56.0 }, "geometry": { "type": "Polygon", "coordinates": [ [ [ 127.078860518483793, 37.527027424453401 ], [ 127.078835179749873, 37.5315341133429 ], [ 127.084494153738717, 37.531554159254682 ], [ 127.084519152033224, 37.527047467122074 ], [ 127.078860518483793, 37.527027424453401 ] ] ] } },
{ "type": "Feature", "properties": { "grid_id": "G0033", "cell_area_m2": 250000.0, "full_cell_area_m2": 250000, "area_ratio": 1.0, "is_boundary_cell": false, "CCTV": 34, "가로등": 74, "경찰서": 0, "비상벨": 29, "지구대": 0.0, "파출소": 0.0, "CCTV보정개수": 34.0, "가로등보정개수": 74.0, "비상벨보정개수": 29.0, "경찰서보정개수": 0.0, "안전점수": 66.0, "안전등급": "C", "CCTV개수": 34, "가로등개수": 74, "비상벨개수": 29, "경찰서개수": 0, "전체시설개수": 137, "전체시설보정개수": 137.0 }, "geometry": { "type": "Polygon", "coordinates": [ [ [ 127.078835179749873, 37.5315341133429 ], [ 127.078809835371629, 37.536040798769946 ], [ 127.084469149875744, 37.536060847925249 ], [ 127.084494153738717, 37.531554159254682 ], [ 127.078835179749873, 37.5315341133429 ] ] ] } },
{ "type": "Feature", "properties": { "grid_id": "G0034", "cell_area_m2": 250000.0, "full_cell_area_m2": 250000, "area_ratio": 1.0, "is_boundary_cell": false, "CCTV": 30, "가로등": 70, "경찰서": 0, "비상벨": 28, "지구대": 0.0, "파출소": 0.0, "CCTV보정개수": 30.0, "가로등보정개수": 70.0, "비상벨보정개수": 28.0, "경찰서보정개수": 0.0, "안전점수": 62.0, "안전등급": "C", "CCTV개수": 30, "가로등개수": 70, "비상벨개수": 28, "경찰서개수": 0, "전체시설개수": 128, "전체시설보정개수": 128.0 }, "geometry": { "type": "Polygon", "coordinates": [ [ [ 127.078809835371629, 37.536040798769946 ], [ 127.078784485347768, 37.540547480734396 ], [ 127.084444140443011, 37.54056753313359 ], [ 127.084469149875744, 37.536060847925249 ], [ 127.078809835371629, 37.536040798769946 ] ] ] } },
{ "type": "Feature", "properties": { "grid_id": "G0035", "cell_area_m2": 250000.0, "full_cell_area_m2": 250000, "area_ratio": 1.0, "is_boundary_cell": false, "CCTV": 15, "가로등": 17, "경찰서": 1, "비상벨": 14, "지구대": 0.0, "파출소": 0.0, "CCTV보정개수": 15.0, "가로등보정개수": 17.0, "비상벨보정개수": 14.0, "경찰서보정개수": 1.0, "안전점수": 37.1, "안전등급": "E", "CCTV개수": 15, "가로등개수": 17, "비상벨개수": 14, "경찰서개수": 1, "전체시설개수": 47, "전체시설보정개수": 47.0 }, "geometry": { "type": "Polygon", "coordinates": [ [ [ 127.078784485347768, 37.540547480734396 ], [ 127.078759129676982, 37.545054159236123 ], [ 127.084419125439197, 37.545074214879598 ], [ 127.084444140443011, 37.54056753313359 ], [ 127.078784485347768, 37.540547480734396 ] ] ] } },
{ "type": "Feature", "properties": { "grid_id": "G0036", "cell_area_m2": 250000.0, "full_cell_area_m2": 250000, "area_ratio": 1.0, "is_boundary_cell": false, "CCTV": 2, "가로등": 33, "경찰서": 0, "비상벨": 1, "지구대": 0.0, "파출소": 0.0, "CCTV보정개수": 2.0, "가로등보정개수": 33.0, "비상벨보정개수": 1.0, "경찰서보정개수": 0.0, "안전점수": 12.3, "안전등급": "E", "CCTV개수": 2, "가로등개수": 33, "비상벨개수": 1, "경찰서개수": 0, "전체시설개수": 36, "전체시설보정개수": 36.0 }, "geometry": { "type": "Polygon", "coordinates": [ [ [ 127.078759129676982, 37.545054159236123 ], [ 127.078733768357907, 37.549560834274963 ], [ 127.084394104862966, 37.549580893163117 ], [ 127.084419125439197, 37.545074214879598 ], [ 127.078759129676982, 37.545054159236123 ] ] ] } },
{ "type": "Feature", "properties": { "grid_id": "G0037", "cell_area_m2": 250000.0, "full_cell_area_m2": 250000, "area_ratio": 1.0, "is_boundary_cell": false, "CCTV": 18, "가로등": 0, "경찰서": 0, "비상벨": 18, "지구대": 0.0, "파출소": 0.0, "CCTV보정개수": 18.0, "가로등보정개수": 0.0, "비상벨보정개수": 18.0, "경찰서보정개수": 0.0, "안전점수": 30.6, "안전등급": "E", "CCTV개수": 18, "가로등개수": 0, "비상벨개수": 18, "경찰서개수": 0, "전체시설개수": 36, "전체시설보정개수": 36.0 }, "geometry": { "type": "Polygon", "coordinates": [ [ [ 127.078733768357907, 37.549560834274963 ], [ 127.078708401389193, 37.554067505850796 ], [ 127.084369078713067, 37.554087567983991 ], [ 127.084394104862966, 37.549580893163117 ], [ 127.078733768357907, 37.549560834274963 ] ] ] } },
{ "type": "Feature", "properties": { "grid_id": "G0038", "cell_area_m2": 250000.0, "full_cell_area_m2": 250000, "area_ratio": 1.0, "is_boundary_cell": false, "CCTV": 32, "가로등": 72, "경찰서": 0, "비상벨": 30, "지구대": 0.0, "파출소": 0.0, "CCTV보정개수": 32.0, "가로등보정개수": 72.0, "비상벨보정개수": 30.0, "경찰서보정개수": 0.0, "안전점수": 64.0, "안전등급": "C", "CCTV개수": 32, "가로등개수": 72, "비상벨개수": 30, "경찰서개수": 0, "전체시설개수": 134, "전체시설보정개수": 134.0 }, "geometry": { "type": "Polygon", "coordinates": [ [ [ 127.078708401389193, 37.554067505850796 ], [ 127.078683028769589, 37.558574173963464 ], [ 127.084344046988122, 37.558594239342085 ], [ 127.084369078713067, 37.554087567983991 ], [ 127.078708401389193, 37.554067505850796 ] ] ] } },
{ "type": "Feature", "properties": { "grid_id": "G0039", "cell_area_m2": 250000.0, "full_cell_area_m2": 250000, "area_ratio": 1.0, "is_boundary_cell": false, "CCTV": 29, "가로등": 79, "경찰서": 0, "비상벨": 27, "지구대": 0.0, "파출소": 1.0, "CCTV보정개수": 29.0, "가로등보정개수": 79.0, "비상벨보정개수": 27.0, "경찰서보정개수": 0.0, "안전점수": 64.0, "안전등급": "C", "CCTV개수": 29, "가로등개수": 79, "비상벨개수": 27, "경찰서개수": 0, "전체시설개수": 135, "전체시설보정개수": 135.0 }, "geometry": { "type": "Polygon", "coordinates": [ [ [ 127.078683028769589, 37.558574173963464 ], [ 127.078657650497689, 37.563080838612805 ], [ 127.084319009686837, 37.563100907237256 ], [ 127.084344046988122, 37.558594239342085 ], [ 127.078683028769589, 37.558574173963464 ] ] ] } },
{ "type": "Feature", "properties": { "grid_id": "G0040", "cell_area_m2": 250000.0, "full_cell_area_m2": 250000, "area_ratio": 1.0, "is_boundary_cell": false, "CCTV": 37, "가로등": 54, "경찰서": 0, "비상벨": 34, "지구대": 0.0, "파출소": 1.0, "CCTV보정개수": 37.0, "가로등보정개수": 54.0, "비상벨보정개수": 34.0, "경찰서보정개수": 0.0, "안전점수": 62.1, "안전등급": "C", "CCTV개수": 37, "가로등개수": 54, "비상벨개수": 34, "경찰서개수": 0, "전체시설개수": 125, "전체시설보정개수": 125.0 }, "geometry": { "type": "Polygon", "coordinates": [ [ [ 127.078657650497689, 37.563080838612805 ], [ 127.0786322665722, 37.567587499798691 ], [ 127.08429396680792, 37.567607571669349 ], [ 127.084319009686837, 37.563100907237256 ], [ 127.078657650497689, 37.563080838612805 ] ] ] } },
{ "type": "Feature", "properties": { "grid_id": "G0041", "cell_area_m2": 219068.90481199999, "full_cell_area_m2": 250000, "area_ratio": 0.876276, "is_boundary_cell": true, "CCTV": 34, "가로등": 66, "경찰서": 0, "비상벨": 29, "지구대": 0.0, "파출소": 1.0, "CCTV보정개수": 38.800577, "가로등보정개수": 75.318768, "비상벨보정개수": 33.09461, "경찰서보정개수": 0.0, "안전점수": 69.756035, "안전등급": "C", "CCTV개수": 34, "가로등개수": 66, "비상벨개수": 29, "경찰서개수": 0, "전체시설개수": 129, "전체시설보정개수": 147.213955 }, "geometry": { "type": "Polygon", "coordinates": [ [ [ 127.08429396680792, 37.567607571669349 ], [ 127.0786322665722, 37.567587499798691 ], [ 127.078608451130592, 37.571814776727798 ], [ 127.078872559169355, 37.571791982521816 ], [ 127.079003075128753, 37.571780715680624 ], [ 127.079331305728431, 37.571752109688333 ], [ 127.079479603077246, 37.57173918179231 ], [ 127.07951799603849, 37.571735840799555 ], [ 127.079552699103772, 37.571732817578862 ], [ 127.079573027438485, 37.571731038205364 ], [ 127.079653696646162, 37.571724975258142 ], [ 127.079683861284138, 37.5717227028221 ], [ 127.079878669362728, 37.571708049765995 ], [ 127.080025689370189, 37.571696996086096 ], [ 127.080147977732366, 37.571687787701691 ], [ 127.080651452968198, 37.571632085627883 ], [ 127.080653680505492, 37.571651176062694 ], [ 127.0808951113478, 37.571612676967064 ], [ 127.080981748867856, 37.5715988515961 ], [ 127.082855305985163, 37.57141335078294 ], [ 127.083331589043183, 37.571369359838734 ], [ 127.083513066907884, 37.571339501350387 ], [ 127.084257727140923, 37.571204049927999 ], [ 127.084273994470905, 37.571201030024561 ], [ 127.08429396680792, 37.567607571669349 ] ] ] } },
{ "type": "Feature", "properties": { "grid_id": "G0042", "cell_area_m2": 78852.671751999995, "full_cell_area_m2": 250000, "area_ratio": 0.315411, "is_boundary_cell": true, "CCTV": 0, "가로등": 0, "경찰서": 0, "비상벨": 0, "지구대": null, "파출소": null, "CCTV보정개수": 0.0, "가로등보정개수": 0.0, "비상벨보정개수": 0.0, "경찰서보정개수": 0.0, "안전점수": 0.0, "안전등급": "E", "CCTV개수": 0, "가로등개수": 0, "비상벨개수": 0, "경찰서개수": 0, "전체시설개수": 0, "전체시설보정개수": 0.0 }, "geometry": { "type": "Polygon", "coordinates": [ [ [ 127.084519152033224, 37.527047467122074 ], [ 127.090177791149813, 37.527067238679699 ], [ 127.090178045380156, 37.527020767968637 ], [ 127.090160992208922, 37.527006560292115 ], [ 127.088754762167838, 37.526309453700769 ], [ 127.088266344479337, 37.52606761708364 ], [ 127.085766571579242, 37.524825179961567 ], [ 127.085632781688247, 37.524758565661294 ], [ 127.084533672082856, 37.524429330309815 ], [ 127.084519152033224, 37.527047467122074 ] ] ] } },
{ "type": "Feature", "properties": { "grid_id": "G0043", "cell_area_m2": 250000.0, "full_cell_area_m2": 250000, "area_ratio": 1.0, "is_boundary_cell": false, "CCTV": 18, "가로등": 27, "경찰서": 0, "비상벨": 17, "지구대": 0.0, "파출소": 0.0, "CCTV보정개수": 18.0, "가로등보정개수": 27.0, "비상벨보정개수": 17.0, "경찰서보정개수": 0.0, "안전점수": 37.7, "안전등급": "E", "CCTV개수": 18, "가로등개수": 27, "비상벨개수": 17, "경찰서개수": 0, "전체시설개수": 62, "전체시설보정개수": 62.0 }, "geometry": { "type": "Polygon", "coordinates": [ [ [ 127.084519152033224, 37.527047467122074 ], [ 127.084494153738717, 37.531554159254682 ], [ 127.090153133296056, 37.531573934011575 ], [ 127.090177791149813, 37.527067238679699 ], [ 127.084519152033224, 37.527047467122074 ] ] ] } },
{ "type": "Feature", "properties": { "grid_id": "G0044", "cell_area_m2": 250000.0, "full_cell_area_m2": 250000, "area_ratio": 1.0, "is_boundary_cell": false, "CCTV": 24, "가로등": 30, "경찰서": 0, "비상벨": 18, "지구대": 0.0, "파출소": 0.0, "CCTV보정개수": 24.0, "가로등보정개수": 30.0, "비상벨보정개수": 18.0, "경찰서보정개수": 0.0, "안전점수": 43.8, "안전등급": "D", "CCTV개수": 24, "가로등개수": 30, "비상벨개수": 18, "경찰서개수": 0, "전체시설개수": 72, "전체시설보정개수": 72.0 }, "geometry": { "type": "Polygon", "coordinates": [ [ [ 127.084494153738717, 37.531554159254682 ], [ 127.084469149875744, 37.536060847925249 ], [ 127.090128469949661, 37.536080625881773 ], [ 127.090153133296056, 37.531573934011575 ], [ 127.084494153738717, 37.531554159254682 ] ] ] } },
{ "type": "Feature", "properties": { "grid_id": "G0045", "cell_area_m2": 250000.0, "full_cell_area_m2": 250000, "area_ratio": 1.0, "is_boundary_cell": false, "CCTV": 31, "가로등": 42, "경찰서": 0, "비상벨": 30, "지구대": 0.0, "파출소": 0.0, "CCTV보정개수": 31.0, "가로등보정개수": 42.0, "비상벨보정개수": 30.0, "경찰서보정개수": 0.0, "안전점수": 54.3, "안전등급": "D", "CCTV개수": 31, "가로등개수": 42, "비상벨개수": 30, "경찰서개수": 0, "전체시설개수": 103, "전체시설보정개수": 103.0 }, "geometry": { "type": "Polygon", "coordinates": [ [ [ 127.084469149875744, 37.536060847925249 ], [ 127.084444140443011, 37.54056753313359 ], [ 127.090103801109336, 37.540587314290143 ], [ 127.090128469949661, 37.536080625881773 ], [ 127.084469149875744, 37.536060847925249 ] ] ] } },
{ "type": "Feature", "properties": { "grid_id": "G0046", "cell_area_m2": 250000.0, "full_cell_area_m2": 250000, "area_ratio": 1.0, "is_boundary_cell": false, "CCTV": 35, "가로등": 31, "경찰서": 0, "비상벨": 28, "지구대": 0.0, "파출소": 0.0, "CCTV보정개수": 35.0, "가로등보정개수": 31.0, "비상벨보정개수": 28.0, "경찰서보정개수": 0.0, "안전점수": 53.8, "안전등급": "D", "CCTV개수": 35, "가로등개수": 31, "비상벨개수": 28, "경찰서개수": 0, "전체시설개수": 94, "전체시설보정개수": 94.0 }, "geometry": { "type": "Polygon", "coordinates": [ [ [ 127.084444140443011, 37.54056753313359 ], [ 127.084419125439197, 37.545074214879598 ], [ 127.090079126773816, 37.545093999236542 ], [ 127.090103801109336, 37.540587314290143 ], [ 127.084444140443011, 37.54056753313359 ] ] ] } },
{ "type": "Feature", "properties": { "grid_id": "G0047", "cell_area_m2": 250000.0, "full_cell_area_m2": 250000, "area_ratio": 1.0, "is_boundary_cell": false, "CCTV": 28, "가로등": 48, "경찰서": 0, "비상벨": 26, "지구대": 0.0, "파출소": 0.0, "CCTV보정개수": 28.0, "가로등보정개수": 48.0, "비상벨보정개수": 26.0, "경찰서보정개수": 0.0, "안전점수": 54.0, "안전등급": "D", "CCTV개수": 28, "가로등개수": 48, "비상벨개수": 26, "경찰서개수": 0, "전체시설개수": 102, "전체시설보정개수": 102.0 }, "geometry": { "type": "Polygon", "coordinates": [ [ [ 127.084419125439197, 37.545074214879598 ], [ 127.084394104862966, 37.549580893163117 ], [ 127.090054446941764, 37.549600680720836 ], [ 127.090079126773816, 37.545093999236542 ], [ 127.084419125439197, 37.545074214879598 ] ] ] } },
{ "type": "Feature", "properties": { "grid_id": "G0048", "cell_area_m2": 250000.0, "full_cell_area_m2": 250000, "area_ratio": 1.0, "is_boundary_cell": false, "CCTV": 23, "가로등": 40, "경찰서": 0, "비상벨": 18, "지구대": 0.0, "파출소": 0.0, "CCTV보정개수": 23.0, "가로등보정개수": 40.0, "비상벨보정개수": 18.0, "경찰서보정개수": 0.0, "안전점수": 46.1, "안전등급": "D", "CCTV개수": 23, "가로등개수": 40, "비상벨개수": 18, "경찰서개수": 0, "전체시설개수": 81, "전체시설보정개수": 81.0 }, "geometry": { "type": "Polygon", "coordinates": [ [ [ 127.084394104862966, 37.549580893163117 ], [ 127.084369078713067, 37.554087567983991 ], [ 127.09002976161193, 37.554107358742861 ], [ 127.090054446941764, 37.549600680720836 ], [ 127.084394104862966, 37.549580893163117 ] ] ] } },
{ "type": "Feature", "properties": { "grid_id": "G0049", "cell_area_m2": 250000.0, "full_cell_area_m2": 250000, "area_ratio": 1.0, "is_boundary_cell": false, "CCTV": 30, "가로등": 64, "경찰서": 0, "비상벨": 25, "지구대": 0.0, "파출소": 0.0, "CCTV보정개수": 30.0, "가로등보정개수": 64.0, "비상벨보정개수": 25.0, "경찰서보정개수": 0.0, "안전점수": 60.2, "안전등급": "C", "CCTV개수": 30, "가로등개수": 64, "비상벨개수": 25, "경찰서개수": 0, "전체시설개수": 119, "전체시설보정개수": 119.0 }, "geometry": { "type": "Polygon", "coordinates": [ [ [ 127.084369078713067, 37.554087567983991 ], [ 127.084344046988122, 37.558594239342085 ], [ 127.090005070782993, 37.558614033302504 ], [ 127.09002976161193, 37.554107358742861 ], [ 127.084369078713067, 37.554087567983991 ] ] ] } },
{ "type": "Feature", "properties": { "grid_id": "G0050", "cell_area_m2": 250000.0, "full_cell_area_m2": 250000, "area_ratio": 1.0, "is_boundary_cell": false, "CCTV": 26, "가로등": 63, "경찰서": 0, "비상벨": 25, "지구대": 0.0, "파출소": 0.0, "CCTV보정개수": 26.0, "가로등보정개수": 63.0, "비상벨보정개수": 25.0, "경찰서보정개수": 0.0, "안전점수": 57.1, "안전등급": "C", "CCTV개수": 26, "가로등개수": 63, "비상벨개수": 25, "경찰서개수": 0, "전체시설개수": 114, "전체시설보정개수": 114.0 }, "geometry": { "type": "Polygon", "coordinates": [ [ [ 127.084344046988122, 37.558594239342085 ], [ 127.084319009686837, 37.563100907237256 ], [ 127.08998037445366, 37.563120704399587 ], [ 127.090005070782993, 37.558614033302504 ], [ 127.084344046988122, 37.558594239342085 ] ] ] } },
{ "type": "Feature", "properties": { "grid_id": "G0051", "cell_area_m2": 250000.0, "full_cell_area_m2": 250000, "area_ratio": 1.0, "is_boundary_cell": false, "CCTV": 28, "가로등": 39, "경찰서": 0, "비상벨": 24, "지구대": 0.0, "파출소": 1.0, "CCTV보정개수": 28.0, "가로등보정개수": 39.0, "비상벨보정개수": 24.0, "경찰서보정개수": 0.0, "안전점수": 51.3, "안전등급": "D", "CCTV개수": 28, "가로등개수": 39, "비상벨개수": 24, "경찰서개수": 0, "전체시설개수": 91, "전체시설보정개수": 91.0 }, "geometry": { "type": "Polygon", "coordinates": [ [ [ 127.084319009686837, 37.563100907237256 ], [ 127.08429396680792, 37.567607571669349 ], [ 127.089955672622622, 37.567627372033968 ], [ 127.08998037445366, 37.563120704399587 ], [ 127.084319009686837, 37.563100907237256 ] ] ] } },
{ "type": "Feature", "properties": { "grid_id": "G0052", "cell_area_m2": 168726.278035, "full_cell_area_m2": 250000, "area_ratio": 0.674905, "is_boundary_cell": true, "CCTV": 22, "가로등": 29, "경찰서": 0, "비상벨": 17, "지구대": 0.0, "파출소": 0.0, "CCTV보정개수": 32.597175, "가로등보정개수": 42.969003, "비상벨보정개수": 25.188726, "경찰서보정개수": 0.0, "안전점수": 55.708723, "안전등급": "C", "CCTV개수": 22, "가로등개수": 29, "비상벨개수": 17, "경찰서개수": 0, "전체시설개수": 68, "전체시설보정개수": 100.754904 }, "geometry": { "type": "Polygon", "coordinates": [ [ [ 127.089955672622622, 37.567627372033968 ], [ 127.08429396680792, 37.567607571669349 ], [ 127.084273994470905, 37.571201030024561 ], [ 127.085216436090917, 37.571026068806503 ], [ 127.085734141877936, 37.570918987676649 ], [ 127.086006871176366, 37.570864706530571 ], [ 127.086170503127519, 37.570831333863367 ], [ 127.086291521653223, 37.570832229107872 ], [ 127.088177015639374, 37.570846059886073 ], [ 127.088185916707616, 37.570820104906346 ], [ 127.088248528626835, 37.570637545844598 ], [ 127.088281502115706, 37.570539674348389 ], [ 127.088395854375023, 37.570181159298798 ], [ 127.089252167016454, 37.569983633213674 ], [ 127.08994362986212, 37.569824120024954 ], [ 127.089955672622622, 37.567627372033968 ] ] ] } },
{ "type": "Feature", "properties": { "grid_id": "G0053", "cell_area_m2": 12.816463, "full_cell_area_m2": 250000, "area_ratio": 5.1e-05, "is_boundary_cell": true, "CCTV": 0, "가로등": 0, "경찰서": 0, "비상벨": 0, "지구대": null, "파출소": null, "CCTV보정개수": 0.0, "가로등보정개수": 0.0, "비상벨보정개수": 0.0, "경찰서보정개수": 0.0, "안전점수": 0.0, "안전등급": "E", "CCTV개수": 0, "가로등개수": 0, "비상벨개수": 0, "경찰서개수": 0, "전체시설개수": 0, "전체시설보정개수": 0.0 }, "geometry": { "type": "Polygon", "coordinates": [ [ [ 127.090177791149813, 37.527067238679699 ], [ 127.090234057588006, 37.527067433915946 ], [ 127.090178045380156, 37.527020767968637 ], [ 127.090177791149813, 37.527067238679699 ] ] ] } },
{ "type": "Feature", "properties": { "grid_id": "G0054", "cell_area_m2": 127338.76439, "full_cell_area_m2": 250000, "area_ratio": 0.509355, "is_boundary_cell": true, "CCTV": 3, "가로등": 7, "경찰서": 0, "비상벨": 3, "지구대": 0.0, "파출소": 0.0, "CCTV보정개수": 5.889801, "가로등보정개수": 13.742869, "비상벨보정개수": 5.889801, "경찰서보정개수": 0.0, "안전점수": 14.135523, "안전등급": "E", "CCTV개수": 3, "가로등개수": 7, "비상벨개수": 3, "경찰서개수": 0, "전체시설개수": 13, "전체시설보정개수": 25.522472 }, "geometry": { "type": "Polygon", "coordinates": [ [ [ 127.090177791149813, 37.527067238679699 ], [ 127.090153133296056, 37.531573934011575 ], [ 127.095812118346004, 37.531593437612742 ], [ 127.095812518415485, 37.531519301662044 ], [ 127.094661707741068, 37.530607073244923 ], [ 127.091292907546929, 37.527949587045242 ], [ 127.090234057588006, 37.527067433915946 ], [ 127.090177791149813, 37.527067238679699 ] ] ] } },
{ "type": "Feature", "properties": { "grid_id": "G0055", "cell_area_m2": 250000.0, "full_cell_area_m2": 250000, "area_ratio": 1.0, "is_boundary_cell": false, "CCTV": 21, "가로등": 104, "경찰서": 0, "비상벨": 12, "지구대": 0.0, "파출소": 0.0, "CCTV보정개수": 21.0, "가로등보정개수": 104.0, "비상벨보정개수": 12.0, "경찰서보정개수": 0.0, "안전점수": 56.7, "안전등급": "C", "CCTV개수": 21, "가로등개수": 104, "비상벨개수": 12, "경찰서개수": 0, "전체시설개수": 137, "전체시설보정개수": 137.0 }, "geometry": { "type": "Polygon", "coordinates": [ [ [ 127.090153133296056, 37.531573934011575 ], [ 127.090128469949661, 37.536080625881773 ], [ 127.095787795517481, 37.536100132638701 ], [ 127.095812118346004, 37.531593437612742 ], [ 127.090153133296056, 37.531573934011575 ] ] ] } },
{ "type": "Feature", "properties": { "grid_id": "G0056", "cell_area_m2": 250000.0, "full_cell_area_m2": 250000, "area_ratio": 1.0, "is_boundary_cell": false, "CCTV": 35, "가로등": 105, "경찰서": 0, "비상벨": 29, "지구대": 0.0, "파출소": 0.0, "CCTV보정개수": 35.0, "가로등보정개수": 105.0, "비상벨보정개수": 29.0, "경찰서보정개수": 0.0, "안전점수": 74.5, "안전등급": "B", "CCTV개수": 35, "가로등개수": 105, "비상벨개수": 29, "경찰서개수": 0, "전체시설개수": 169, "전체시설보정개수": 169.0 }, "geometry": { "type": "Polygon", "coordinates": [ [ [ 127.090128469949661, 37.536080625881773 ], [ 127.090103801109336, 37.540587314290143 ], [ 127.095763467270885, 37.540606824203209 ], [ 127.095787795517481, 37.536100132638701 ], [ 127.090128469949661, 37.536080625881773 ] ] ] } },
{ "type": "Feature", "properties": { "grid_id": "G0057", "cell_area_m2": 250000.0, "full_cell_area_m2": 250000, "area_ratio": 1.0, "is_boundary_cell": false, "CCTV": 27, "가로등": 54, "경찰서": 0, "비상벨": 23, "지구대": 0.0, "파출소": 0.0, "CCTV보정개수": 27.0, "가로등보정개수": 54.0, "비상벨보정개수": 23.0, "경찰서보정개수": 0.0, "안전점수": 55.1, "안전등급": "C", "CCTV개수": 27, "가로등개수": 54, "비상벨개수": 23, "경찰서개수": 0, "전체시설개수": 104, "전체시설보정개수": 104.0 }, "geometry": { "type": "Polygon", "coordinates": [ [ [ 127.090103801109336, 37.540587314290143 ], [ 127.090079126773816, 37.545093999236542 ], [ 127.095739133604923, 37.545113512306131 ], [ 127.095763467270885, 37.540606824203209 ], [ 127.090103801109336, 37.540587314290143 ] ] ] } },
{ "type": "Feature", "properties": { "grid_id": "G0058", "cell_area_m2": 250000.0, "full_cell_area_m2": 250000, "area_ratio": 1.0, "is_boundary_cell": false, "CCTV": 17, "가로등": 37, "경찰서": 0, "비상벨": 15, "지구대": 0.0, "파출소": 1.0, "CCTV보정개수": 17.0, "가로등보정개수": 37.0, "비상벨보정개수": 15.0, "경찰서보정개수": 0.0, "안전점수": 38.0, "안전등급": "E", "CCTV개수": 17, "가로등개수": 37, "비상벨개수": 15, "경찰서개수": 0, "전체시설개수": 69, "전체시설보정개수": 69.0 }, "geometry": { "type": "Polygon", "coordinates": [ [ [ 127.090079126773816, 37.545093999236542 ], [ 127.090054446941764, 37.549600680720836 ], [ 127.095714794518372, 37.549620196947309 ], [ 127.095739133604923, 37.545113512306131 ], [ 127.090079126773816, 37.545093999236542 ] ] ] } },
{ "type": "Feature", "properties": { "grid_id": "G0059", "cell_area_m2": 250000.0, "full_cell_area_m2": 250000, "area_ratio": 1.0, "is_boundary_cell": false, "CCTV": 30, "가로등": 27, "경찰서": 0, "비상벨": 29, "지구대": 0.0, "파출소": 0.0, "CCTV보정개수": 30.0, "가로등보정개수": 27.0, "비상벨보정개수": 29.0, "경찰서보정개수": 0.0, "안전점수": 49.1, "안전등급": "D", "CCTV개수": 30, "가로등개수": 27, "비상벨개수": 29, "경찰서개수": 0, "전체시설개수": 86, "전체시설보정개수": 86.0 }, "geometry": { "type": "Polygon", "coordinates": [ [ [ 127.090054446941764, 37.549600680720836 ], [ 127.09002976161193, 37.554107358742861 ], [ 127.095690450009897, 37.55412687812661 ], [ 127.095714794518372, 37.549620196947309 ], [ 127.090054446941764, 37.549600680720836 ] ] ] } },
{ "type": "Feature", "properties": { "grid_id": "G0060", "cell_area_m2": 250000.0, "full_cell_area_m2": 250000, "area_ratio": 1.0, "is_boundary_cell": false, "CCTV": 27, "가로등": 25, "경찰서": 0, "비상벨": 25, "지구대": 0.0, "파출소": 0.0, "CCTV보정개수": 27.0, "가로등보정개수": 25.0, "비상벨보정개수": 25.0, "경찰서보정개수": 0.0, "안전점수": 46.4, "안전등급": "D", "CCTV개수": 27, "가로등개수": 25, "비상벨개수": 25, "경찰서개수": 0, "전체시설개수": 77, "전체시설보정개수": 77.0 }, "geometry": { "type": "Polygon", "coordinates": [ [ [ 127.09002976161193, 37.554107358742861 ], [ 127.090005070782993, 37.558614033302504 ], [ 127.095666100078233, 37.558633555843883 ], [ 127.095690450009897, 37.55412687812661 ], [ 127.09002976161193, 37.554107358742861 ] ] ] } },
{ "type": "Feature", "properties": { "grid_id": "G0061", "cell_area_m2": 250000.0, "full_cell_area_m2": 250000, "area_ratio": 1.0, "is_boundary_cell": false, "CCTV": 22, "가로등": 17, "경찰서": 0, "비상벨": 21, "지구대": 0.0, "파출소": 0.0, "CCTV보정개수": 22.0, "가로등보정개수": 17.0, "비상벨보정개수": 21.0, "경찰서보정개수": 0.0, "안전점수": 40.5, "안전등급": "D", "CCTV개수": 22, "가로등개수": 17, "비상벨개수": 21, "경찰서개수": 0, "전체시설개수": 60, "전체시설보정개수": 60.0 }, "geometry": { "type": "Polygon", "coordinates": [ [ [ 127.090005070782993, 37.558614033302504 ], [ 127.08998037445366, 37.563120704399587 ], [ 127.095641744722144, 37.563140230098966 ], [ 127.095666100078233, 37.558633555843883 ], [ 127.090005070782993, 37.558614033302504 ] ] ] } },
{ "type": "Feature", "properties": { "grid_id": "G0062", "cell_area_m2": 250000.0, "full_cell_area_m2": 250000, "area_ratio": 1.0, "is_boundary_cell": false, "CCTV": 0, "가로등": 0, "경찰서": 0, "비상벨": 0, "지구대": null, "파출소": null, "CCTV보정개수": 0.0, "가로등보정개수": 0.0, "비상벨보정개수": 0.0, "경찰서보정개수": 0.0, "안전점수": 0.0, "안전등급": "E", "CCTV개수": 0, "가로등개수": 0, "비상벨개수": 0, "경찰서개수": 0, "전체시설개수": 0, "전체시설보정개수": 0.0 }, "geometry": { "type": "Polygon", "coordinates": [ [ [ 127.08998037445366, 37.563120704399587 ], [ 127.089955672622622, 37.567627372033968 ], [ 127.095617383940279, 37.567646900891752 ], [ 127.095641744722144, 37.563140230098966 ], [ 127.08998037445366, 37.563120704399587 ] ] ] } },
{ "type": "Feature", "properties": { "grid_id": "G0063", "cell_area_m2": 146735.69546, "full_cell_area_m2": 250000, "area_ratio": 0.586943, "is_boundary_cell": true, "CCTV": 4, "가로등": 0, "경찰서": 0, "비상벨": 4, "지구대": 0.0, "파출소": 0.0, "CCTV보정개수": 6.814974, "가로등보정개수": 0.0, "비상벨보정개수": 6.814974, "경찰서보정개수": 0.0, "안전점수": 11.585456, "안전등급": "E", "CCTV개수": 4, "가로등개수": 0, "비상벨개수": 4, "경찰서개수": 0, "전체시설개수": 8, "전체시설보정개수": 13.629949 }, "geometry": { "type": "Polygon", "coordinates": [ [ [ 127.095617383940279, 37.567646900891752 ], [ 127.089955672622622, 37.567627372033968 ], [ 127.08994362986212, 37.569824120024954 ], [ 127.090492856050176, 37.569697415952902 ], [ 127.093372404556391, 37.570495972716451 ], [ 127.093752991167179, 37.570570863433545 ], [ 127.094788748571233, 37.570750715788414 ], [ 127.095191963374816, 37.570706239156053 ], [ 127.095601366922779, 37.570609451786147 ], [ 127.095617383940279, 37.567646900891752 ] ] ] } },
{ "type": "Feature", "properties": { "grid_id": "G0064", "cell_area_m2": 34.277749, "full_cell_area_m2": 250000, "area_ratio": 0.000137, "is_boundary_cell": true, "CCTV": 0, "가로등": 0, "경찰서": 0, "비상벨": 0, "지구대": null, "파출소": null, "CCTV보정개수": 0.0, "가로등보정개수": 0.0, "비상벨보정개수": 0.0, "경찰서보정개수": 0.0, "안전점수": 0.0, "안전등급": "E", "CCTV개수": 0, "가로등개수": 0, "비상벨개수": 0, "경찰서개수": 0, "전체시설개수": 0, "전체시설보정개수": 0.0 }, "geometry": { "type": "Polygon", "coordinates": [ [ [ 127.095812118346004, 37.531593437612742 ], [ 127.095906452839188, 37.531593760437161 ], [ 127.095812518415485, 37.531519301662044 ], [ 127.095812118346004, 37.531593437612742 ] ] ] } },
{ "type": "Feature", "properties": { "grid_id": "G0065", "cell_area_m2": 130736.851177, "full_cell_area_m2": 250000, "area_ratio": 0.522947, "is_boundary_cell": true, "CCTV": 0, "가로등": 0, "경찰서": 0, "비상벨": 0, "지구대": null, "파출소": null, "CCTV보정개수": 0.0, "가로등보정개수": 0.0, "비상벨보정개수": 0.0, "경찰서보정개수": 0.0, "안전점수": 0.0, "안전등급": "E", "CCTV개수": 0, "가로등개수": 0, "비상벨개수": 0, "경찰서개수": 0, "전체시설개수": 0, "전체시설보정개수": 0.0 }, "geometry": { "type": "Polygon", "coordinates": [ [ [ 127.095812118346004, 37.531593437612742 ], [ 127.095787795517481, 37.536100132638701 ], [ 127.101447126503388, 37.536119368195244 ], [ 127.10144784776594, 37.535983844953329 ], [ 127.099203258308222, 37.534207378478072 ], [ 127.096955152146194, 37.532425015294393 ], [ 127.095906452839188, 37.531593760437161 ], [ 127.095812118346004, 37.531593437612742 ] ] ] } },
{ "type": "Feature", "properties": { "grid_id": "G0066", "cell_area_m2": 250000.0, "full_cell_area_m2": 250000, "area_ratio": 1.0, "is_boundary_cell": false, "CCTV": 3, "가로등": 43, "경찰서": 0, "비상벨": 1, "지구대": 0.0, "파출소": 0.0, "CCTV보정개수": 3.0, "가로등보정개수": 43.0, "비상벨보정개수": 1.0, "경찰서보정개수": 0.0, "안전점수": 16.0, "안전등급": "E", "CCTV개수": 3, "가로등개수": 43, "비상벨개수": 1, "경찰서개수": 0, "전체시설개수": 47, "전체시설보정개수": 47.0 }, "geometry": { "type": "Polygon", "coordinates": [ [ [ 127.095787795517481, 37.536100132638701 ], [ 127.095763467270885, 37.540606824203209 ], [ 127.101423138851786, 37.540626062872015 ], [ 127.101447126503388, 37.536119368195244 ], [ 127.095787795517481, 37.536100132638701 ] ] ] } },
{ "type": "Feature", "properties": { "grid_id": "G0067", "cell_area_m2": 250000.0, "full_cell_area_m2": 250000, "area_ratio": 1.0, "is_boundary_cell": false, "CCTV": 18, "가로등": 54, "경찰서": 0, "비상벨": 16, "지구대": 0.0, "파출소": 0.0, "CCTV보정개수": 18.0, "가로등보정개수": 54.0, "비상벨보정개수": 16.0, "경찰서보정개수": 0.0, "안전점수": 44.8, "안전등급": "D", "CCTV개수": 18, "가로등개수": 54, "비상벨개수": 16, "경찰서개수": 0, "전체시설개수": 88, "전체시설보정개수": 88.0 }, "geometry": { "type": "Polygon", "coordinates": [ [ [ 127.095763467270885, 37.540606824203209 ], [ 127.095739133604923, 37.545113512306131 ], [ 127.101399145856689, 37.545132754087561 ], [ 127.101423138851786, 37.540626062872015 ], [ 127.095763467270885, 37.540606824203209 ] ] ] } },
{ "type": "Feature", "properties": { "grid_id": "G0068", "cell_area_m2": 250000.0, "full_cell_area_m2": 250000, "area_ratio": 1.0, "is_boundary_cell": false, "CCTV": 17, "가로등": 72, "경찰서": 0, "비상벨": 15, "지구대": 0.0, "파출소": 0.0, "CCTV보정개수": 17.0, "가로등보정개수": 72.0, "비상벨보정개수": 15.0, "경찰서보정개수": 0.0, "안전점수": 48.5, "안전등급": "D", "CCTV개수": 17, "가로등개수": 72, "비상벨개수": 15, "경찰서개수": 0, "전체시설개수": 104, "전체시설보정개수": 104.0 }, "geometry": { "type": "Polygon", "coordinates": [ [ [ 127.095739133604923, 37.545113512306131 ], [ 127.095714794518372, 37.549620196947309 ], [ 127.101375147516876, 37.549639441841741 ], [ 127.101399145856689, 37.545132754087561 ], [ 127.095739133604923, 37.545113512306131 ] ] ] } },
{ "type": "Feature", "properties": { "grid_id": "G0069", "cell_area_m2": 250000.0, "full_cell_area_m2": 250000, "area_ratio": 1.0, "is_boundary_cell": false, "CCTV": 32, "가로등": 35, "경찰서": 0, "비상벨": 27, "지구대": 0.0, "파출소": 0.0, "CCTV보정개수": 32.0, "가로등보정개수": 35.0, "비상벨보정개수": 27.0, "경찰서보정개수": 0.0, "안전점수": 52.9, "안전등급": "D", "CCTV개수": 32, "가로등개수": 35, "비상벨개수": 27, "경찰서개수": 0, "전체시설개수": 94, "전체시설보정개수": 94.0 }, "geometry": { "type": "Polygon", "coordinates": [ [ [ 127.095714794518372, 37.549620196947309 ], [ 127.095690450009897, 37.55412687812661 ], [ 127.101351143831053, 37.554146126134405 ], [ 127.101375147516876, 37.549639441841741 ], [ 127.095714794518372, 37.549620196947309 ] ] ] } },
{ "type": "Feature", "properties": { "grid_id": "G0070", "cell_area_m2": 250000.0, "full_cell_area_m2": 250000, "area_ratio": 1.0, "is_boundary_cell": false, "CCTV": 20, "가로등": 8, "경찰서": 0, "비상벨": 17, "지구대": 0.0, "파출소": 0.0, "CCTV보정개수": 20.0, "가로등보정개수": 8.0, "비상벨보정개수": 17.0, "경찰서보정개수": 0.0, "안전점수": 33.4, "안전등급": "E", "CCTV개수": 20, "가로등개수": 8, "비상벨개수": 17, "경찰서개수": 0, "전체시설개수": 45, "전체시설보정개수": 45.0 }, "geometry": { "type": "Polygon", "coordinates": [ [ [ 127.095690450009897, 37.55412687812661 ], [ 127.095666100078233, 37.558633555843883 ], [ 127.101327134797955, 37.558652806965412 ], [ 127.101351143831053, 37.554146126134405 ], [ 127.095690450009897, 37.55412687812661 ] ] ] } },
{ "type": "Feature", "properties": { "grid_id": "G0071", "cell_area_m2": 249074.71713400001, "full_cell_area_m2": 250000, "area_ratio": 0.996299, "is_boundary_cell": true, "CCTV": 7, "가로등": 6, "경찰서": 0, "비상벨": 5, "지구대": 0.0, "파출소": 0.0, "CCTV보정개수": 7.026004, "가로등보정개수": 6.022289, "비상벨보정개수": 5.018574, "경찰서보정개수": 0.0, "안전점수": 11.743464, "안전등급": "E", "CCTV개수": 7, "가로등개수": 6, "비상벨개수": 5, "경찰서개수": 0, "전체시설개수": 18, "전체시설보정개수": 18.066868 }, "geometry": { "type": "Polygon", "coordinates": [ [ [ 127.101327134797955, 37.558652806965412 ], [ 127.095666100078233, 37.558633555843883 ], [ 127.095641744722144, 37.563140230098966 ], [ 127.101303120416361, 37.563159484334612 ], [ 127.10131065497157, 37.561745614683943 ], [ 127.101250820776826, 37.561605024326013 ], [ 127.101166560865053, 37.561072520817341 ], [ 127.101190906403588, 37.560996294607634 ], [ 127.101316747253094, 37.560602317174897 ], [ 127.101327134797955, 37.558652806965412 ] ] ] } },
{ "type": "Feature", "properties": { "grid_id": "G0072", "cell_area_m2": 250000.0, "full_cell_area_m2": 250000, "area_ratio": 1.0, "is_boundary_cell": false, "CCTV": 7, "가로등": 0, "경찰서": 0, "비상벨": 6, "지구대": 0.0, "파출소": 0.0, "CCTV보정개수": 7.0, "가로등보정개수": 0.0, "비상벨보정개수": 6.0, "경찰서보정개수": 0.0, "안전점수": 10.9, "안전등급": "E", "CCTV개수": 7, "가로등개수": 0, "비상벨개수": 6, "경찰서개수": 0, "전체시설개수": 13, "전체시설보정개수": 13.0 }, "geometry": { "type": "Polygon", "coordinates": [ [ [ 127.095641744722144, 37.563140230098966 ], [ 127.095617383940279, 37.567646900891752 ], [ 127.101279100684962, 37.56766615824187 ], [ 127.101303120416361, 37.563159484334612 ], [ 127.095641744722144, 37.563140230098966 ] ] ] } },
{ "type": "Feature", "properties": { "grid_id": "G0073", "cell_area_m2": 236835.464722, "full_cell_area_m2": 250000, "area_ratio": 0.947342, "is_boundary_cell": true, "CCTV": 0, "가로등": 0, "경찰서": 0, "비상벨": 0, "지구대": null, "파출소": null, "CCTV보정개수": 0.0, "가로등보정개수": 0.0, "비상벨보정개수": 0.0, "경찰서보정개수": 0.0, "안전점수": 0.0, "안전등급": "E", "CCTV개수": 0, "가로등개수": 0, "비상벨개수": 0, "경찰서개수": 0, "전체시설개수": 0, "전체시설보정개수": 0.0 }, "geometry": { "type": "Polygon", "coordinates": [ [ [ 127.101255075602552, 37.572172828687037 ], [ 127.101279100684962, 37.56766615824187 ], [ 127.095617383940279, 37.567646900891752 ], [ 127.095601366922779, 37.570609451786147 ], [ 127.095604302494877, 37.57060875777951 ], [ 127.095793022552741, 37.571004546267886 ], [ 127.095837728661749, 37.571340678049012 ], [ 127.096323184542342, 37.571297267071095 ], [ 127.097399154071184, 37.571944956025021 ], [ 127.097874295901931, 37.572161361048863 ], [ 127.101255075602552, 37.572172828687037 ] ] ] } },
{ "type": "Feature", "properties": { "grid_id": "G0074", "cell_area_m2": 25149.67563, "full_cell_area_m2": 250000, "area_ratio": 0.100599, "is_boundary_cell": true, "CCTV": 0, "가로등": 0, "경찰서": 0, "비상벨": 0, "지구대": null, "파출소": null, "CCTV보정개수": 0.0, "가로등보정개수": 0.0, "비상벨보정개수": 0.0, "경찰서보정개수": 0.0, "안전점수": 0.0, "안전등급": "E", "CCTV개수": 0, "가로등개수": 0, "비상벨개수": 0, "경찰서개수": 0, "전체시설개수": 0, "전체시설보정개수": 0.0 }, "geometry": { "type": "Polygon", "coordinates": [ [ [ 127.101255075602552, 37.572172828687037 ], [ 127.097874295901931, 37.572161361048863 ], [ 127.098301925710189, 37.572356123850717 ], [ 127.098542748878842, 37.572648539861483 ], [ 127.099439113640102, 37.572737294895845 ], [ 127.100695893258944, 37.573593904630926 ], [ 127.100851384652842, 37.573764420882334 ], [ 127.1009678455531, 37.573449896324554 ], [ 127.101229577338898, 37.573146394246614 ], [ 127.101250088466969, 37.573108198782322 ], [ 127.101255075602552, 37.572172828687037 ] ] ] } },
{ "type": "Feature", "properties": { "grid_id": "G0075", "cell_area_m2": 114.707426, "full_cell_area_m2": 250000, "area_ratio": 0.000459, "is_boundary_cell": true, "CCTV": 0, "가로등": 0, "경찰서": 0, "비상벨": 0, "지구대": null, "파출소": null, "CCTV보정개수": 0.0, "가로등보정개수": 0.0, "비상벨보정개수": 0.0, "경찰서보정개수": 0.0, "안전점수": 0.0, "안전등급": "E", "CCTV개수": 0, "가로등개수": 0, "비상벨개수": 0, "경찰서개수": 0, "전체시설개수": 0, "전체시설보정개수": 0.0 }, "geometry": { "type": "Polygon", "coordinates": [ [ [ 127.101447126503388, 37.536119368195244 ], [ 127.101619826111673, 37.536119950921126 ], [ 127.10144784776594, 37.535983844953329 ], [ 127.101447126503388, 37.536119368195244 ] ] ] } },
{ "type": "Feature", "properties": { "grid_id": "G0076", "cell_area_m2": 133378.13240100001, "full_cell_area_m2": 250000, "area_ratio": 0.533513, "is_boundary_cell": true, "CCTV": 2, "가로등": 11, "경찰서": 0, "비상벨": 2, "지구대": 0.0, "파출소": 0.0, "CCTV보정개수": 3.74874, "가로등보정개수": 20.618072, "비상벨보정개수": 3.74874, "경찰서보정개수": 0.0, "안전점수": 12.558281, "안전등급": "E", "CCTV개수": 2, "가로등개수": 11, "비상벨개수": 2, "경찰서개수": 0, "전체시설개수": 15, "전체시설보정개수": 28.115553 }, "geometry": { "type": "Polygon", "coordinates": [ [ [ 127.101447126503388, 37.536119368195244 ], [ 127.101423138851786, 37.540626062872015 ], [ 127.107082815776138, 37.540645030295735 ], [ 127.107083780744603, 37.540461144609807 ], [ 127.103724822719926, 37.537807523912477 ], [ 127.102618100418567, 37.536920187753338 ], [ 127.102029993718702, 37.53644456005631 ], [ 127.101619826111673, 37.536119950921126 ], [ 127.101447126503388, 37.536119368195244 ] ] ] } },
{ "type": "Feature", "properties": { "grid_id": "G0077", "cell_area_m2": 250000.0, "full_cell_area_m2": 250000, "area_ratio": 1.0, "is_boundary_cell": false, "CCTV": 7, "가로등": 64, "경찰서": 0, "비상벨": 6, "지구대": 1.0, "파출소": 0.0, "CCTV보정개수": 7.0, "가로등보정개수": 64.0, "비상벨보정개수": 6.0, "경찰서보정개수": 0.0, "안전점수": 30.1, "안전등급": "E", "CCTV개수": 7, "가로등개수": 64, "비상벨개수": 6, "경찰서개수": 0, "전체시설개수": 77, "전체시설보정개수": 77.0 }, "geometry": { "type": "Polygon", "coordinates": [ [ [ 127.101423138851786, 37.540626062872015 ], [ 127.101399145856689, 37.545132754087561 ], [ 127.107059163453187, 37.545151724580037 ], [ 127.107082815776138, 37.540645030295735 ], [ 127.101423138851786, 37.540626062872015 ] ] ] } },
{ "type": "Feature", "properties": { "grid_id": "G0078", "cell_area_m2": 250000.0, "full_cell_area_m2": 250000, "area_ratio": 1.0, "is_boundary_cell": false, "CCTV": 29, "가로등": 90, "경찰서": 0, "비상벨": 23, "지구대": 0.0, "파출소": 0.0, "CCTV보정개수": 29.0, "가로등보정개수": 90.0, "비상벨보정개수": 23.0, "경찰서보정개수": 0.0, "안전점수": 67.3, "안전등급": "C", "CCTV개수": 29, "가로등개수": 90, "비상벨개수": 23, "경찰서개수": 0, "전체시설개수": 142, "전체시설보정개수": 142.0 }, "geometry": { "type": "Polygon", "coordinates": [ [ [ 127.101399145856689, 37.545132754087561 ], [ 127.101375147516876, 37.549639441841741 ], [ 127.107035505861361, 37.549658415403321 ], [ 127.107059163453187, 37.545151724580037 ], [ 127.101399145856689, 37.545132754087561 ] ] ] } },
{ "type": "Feature", "properties": { "grid_id": "G0079", "cell_area_m2": 250000.0, "full_cell_area_m2": 250000, "area_ratio": 1.0, "is_boundary_cell": false, "CCTV": 18, "가로등": 16, "경찰서": 0, "비상벨": 18, "지구대": 0.0, "파출소": 0.0, "CCTV보정개수": 18.0, "가로등보정개수": 16.0, "비상벨보정개수": 18.0, "경찰서보정개수": 0.0, "안전점수": 35.4, "안전등급": "E", "CCTV개수": 18, "가로등개수": 16, "비상벨개수": 18, "경찰서개수": 0, "전체시설개수": 52, "전체시설보정개수": 52.0 }, "geometry": { "type": "Polygon", "coordinates": [ [ [ 127.101375147516876, 37.549639441841741 ], [ 127.101351143831053, 37.554146126134405 ], [ 127.107011842999455, 37.554165102765467 ], [ 127.107035505861361, 37.549658415403321 ], [ 127.101375147516876, 37.549639441841741 ] ] ] } },
{ "type": "Feature", "properties": { "grid_id": "G0080", "cell_area_m2": 187274.65776199999, "full_cell_area_m2": 250000, "area_ratio": 0.749099, "is_boundary_cell": true, "CCTV": 11, "가로등": 0, "경찰서": 0, "비상벨": 8, "지구대": 0.0, "파출소": 0.0, "CCTV보정개수": 14.684315, "가로등보정개수": 0.0, "비상벨보정개수": 10.679502, "경찰서보정개수": 0.0, "안전점수": 20.958522, "안전등급": "E", "CCTV개수": 11, "가로등개수": 0, "비상벨개수": 8, "경찰서개수": 0, "전체시설개수": 19, "전체시설보정개수": 25.363816 }, "geometry": { "type": "Polygon", "coordinates": [ [ [ 127.107011842999455, 37.554165102765467 ], [ 127.101351143831053, 37.554146126134405 ], [ 127.101327134797955, 37.558652806965412 ], [ 127.102913595543285, 37.558658153248743 ], [ 127.103906308299386, 37.557796792392985 ], [ 127.104276224161268, 37.557566196122536 ], [ 127.104404267159467, 37.557299950296041 ], [ 127.104662352943265, 37.556808028014018 ], [ 127.104940985567708, 37.556412844431378 ], [ 127.105400440286175, 37.556333325197294 ], [ 127.106040199568554, 37.556365340419198 ], [ 127.106393151040407, 37.556459667434908 ], [ 127.106677114375216, 37.556813071390444 ], [ 127.10685768110632, 37.556931453662692 ], [ 127.106996836368396, 37.557022654213561 ], [ 127.107011842999455, 37.554165102765467 ] ] ] } },
{ "type": "Feature", "properties": { "grid_id": "G0081", "cell_area_m2": 16074.615883, "full_cell_area_m2": 250000, "area_ratio": 0.064298, "is_boundary_cell": true, "CCTV": 1, "가로등": 0, "경찰서": 0, "비상벨": 1, "지구대": 0.0, "파출소": 0.0, "CCTV보정개수": 15.552471, "가로등보정개수": 0.0, "비상벨보정개수": 15.552471, "경찰서보정개수": 0.0, "안전점수": 26.439201, "안전등급": "E", "CCTV개수": 1, "가로등개수": 0, "비상벨개수": 1, "경찰서개수": 0, "전체시설개수": 2, "전체시설보정개수": 31.104942 }, "geometry": { "type": "MultiPolygon", "coordinates": [ [ [ [ 127.101303120416361, 37.563159484334612 ], [ 127.101694393468108, 37.563160805017318 ], [ 127.101715195126815, 37.562696134248668 ], [ 127.10131065497157, 37.561745614683943 ], [ 127.101303120416361, 37.563159484334612 ] ] ], [ [ [ 127.101327134797955, 37.558652806965412 ], [ 127.101316747253094, 37.560602317174897 ], [ 127.101353174976708, 37.560488269917812 ], [ 127.101967978105677, 37.559432816165014 ], [ 127.101968555314997, 37.559432815673937 ], [ 127.102222993042332, 37.559206711893779 ], [ 127.102168582578088, 37.559185603055269 ], [ 127.102296583440548, 37.559090547611191 ], [ 127.102706161781853, 37.559022695198585 ], [ 127.102852961067327, 37.558710763884285 ], [ 127.102913595543285, 37.558658153248743 ], [ 127.101327134797955, 37.558652806965412 ] ] ] ] } },
{ "type": "Feature", "properties": { "grid_id": "G0082", "cell_area_m2": 48743.421894, "full_cell_area_m2": 250000, "area_ratio": 0.194974, "is_boundary_cell": true, "CCTV": 0, "가로등": 0, "경찰서": 0, "비상벨": 0, "지구대": null, "파출소": null, "CCTV보정개수": 0.0, "가로등보정개수": 0.0, "비상벨보정개수": 0.0, "경찰서보정개수": 0.0, "안전점수": 0.0, "안전등급": "E", "CCTV개수": 0, "가로등개수": 0, "비상벨개수": 0, "경찰서개수": 0, "전체시설개수": 0, "전체시설보정개수": 0.0 }, "geometry": { "type": "Polygon", "coordinates": [ [ [ 127.101303120416361, 37.563159484334612 ], [ 127.101279100684962, 37.56766615824187 ], [ 127.102939430679925, 37.567671754078368 ], [ 127.102723261793102, 37.566929235898186 ], [ 127.102324146162729, 37.564906885460744 ], [ 127.102314222490207, 37.564312475729317 ], [ 127.101885210450789, 37.563769617104711 ], [ 127.101689907895135, 37.563261003623154 ], [ 127.101694393468108, 37.563160805017318 ], [ 127.101303120416361, 37.563159484334612 ] ] ] } },
{ "type": "Feature", "properties": { "grid_id": "G0083", "cell_area_m2": 101720.473956, "full_cell_area_m2": 250000, "area_ratio": 0.406882, "is_boundary_cell": true, "CCTV": 1, "가로등": 0, "경찰서": 0, "비상벨": 0, "지구대": 0.0, "파출소": 0.0, "CCTV보정개수": 2.457716, "가로등보정개수": 0.0, "비상벨보정개수": 0.0, "경찰서보정개수": 0.0, "안전점수": 1.720401, "안전등급": "E", "CCTV개수": 1, "가로등개수": 0, "비상벨개수": 0, "경찰서개수": 0, "전체시설개수": 1, "전체시설보정개수": 2.457716 }, "geometry": { "type": "Polygon", "coordinates": [ [ [ 127.101279100684962, 37.56766615824187 ], [ 127.101255075602552, 37.572172828687037 ], [ 127.103436086120269, 37.572180175318437 ], [ 127.103767799018271, 37.571963587468133 ], [ 127.104131464532941, 37.571564810247253 ], [ 127.104294979441548, 37.571451044483787 ], [ 127.104170287639732, 37.571149934811679 ], [ 127.104085665826886, 37.570921445828233 ], [ 127.103941397182624, 37.570615154193007 ], [ 127.103505823123868, 37.570109933008553 ], [ 127.103437513644579, 37.569638928565851 ], [ 127.103262413957722, 37.568848264526935 ], [ 127.10303615058082, 37.568003972264727 ], [ 127.102939430679925, 37.567671754078368 ], [ 127.101279100684962, 37.56766615824187 ] ] ] } },
{ "type": "Feature", "properties": { "grid_id": "G0084", "cell_area_m2": 4797.432983, "full_cell_area_m2": 250000, "area_ratio": 0.01919, "is_boundary_cell": true, "CCTV": 0, "가로등": 0, "경찰서": 0, "비상벨": 0, "지구대": null, "파출소": null, "CCTV보정개수": 0.0, "가로등보정개수": 0.0, "비상벨보정개수": 0.0, "경찰서보정개수": 0.0, "안전점수": 0.0, "안전등급": "E", "CCTV개수": 0, "가로등개수": 0, "비상벨개수": 0, "경찰서개수": 0, "전체시설개수": 0, "전체시설보정개수": 0.0 }, "geometry": { "type": "Polygon", "coordinates": [ [ [ 127.101255075602552, 37.572172828687037 ], [ 127.101250088466969, 37.573108198782322 ], [ 127.101303685843078, 37.573008390480972 ], [ 127.101702034968127, 37.572468974387185 ], [ 127.102310910108983, 37.57222061253767 ], [ 127.103172659845384, 37.572352174689534 ], [ 127.103436086120269, 37.572180175318437 ], [ 127.101255075602552, 37.572172828687037 ] ] ] } },
{ "type": "Feature", "properties": { "grid_id": "G0085", "cell_area_m2": 211.531715, "full_cell_area_m2": 250000, "area_ratio": 0.000846, "is_boundary_cell": true, "CCTV": 0, "가로등": 0, "경찰서": 0, "비상벨": 0, "지구대": null, "파출소": null, "CCTV보정개수": 0.0, "가로등보정개수": 0.0, "비상벨보정개수": 0.0, "경찰서보정개수": 0.0, "안전점수": 0.0, "안전등급": "E", "CCTV개수": 0, "가로등개수": 0, "비상벨개수": 0, "경찰서개수": 0, "전체시설개수": 0, "전체시설보정개수": 0.0 }, "geometry": { "type": "Polygon", "coordinates": [ [ [ 127.107082815776138, 37.540645030295735 ], [ 127.107317545277638, 37.540645811092375 ], [ 127.107083780744603, 37.540461144609807 ], [ 127.107082815776138, 37.540645030295735 ] ] ] } },
{ "type": "Feature", "properties": { "grid_id": "G0086", "cell_area_m2": 87469.309506000005, "full_cell_area_m2": 250000, "area_ratio": 0.349877, "is_boundary_cell": true, "CCTV": 0, "가로등": 0, "경찰서": 0, "비상벨": 0, "지구대": null, "파출소": null, "CCTV보정개수": 0.0, "가로등보정개수": 0.0, "비상벨보정개수": 0.0, "경찰서보정개수": 0.0, "안전점수": 0.0, "안전등급": "E", "CCTV개수": 0, "가로등개수": 0, "비상벨개수": 0, "경찰서개수": 0, "전체시설개수": 0, "전체시설보정개수": 0.0 }, "geometry": { "type": "Polygon", "coordinates": [ [ [ 127.107082815776138, 37.540645030295735 ], [ 127.107059163453187, 37.545151724580037 ], [ 127.110341408202316, 37.545162601286812 ], [ 127.11024346790316, 37.54500963926656 ], [ 127.10828171765489, 37.541407461832407 ], [ 127.107317545277638, 37.540645811092375 ], [ 127.107082815776138, 37.540645030295735 ] ] ] } },
{ "type": "Feature", "properties": { "grid_id": "G0087", "cell_area_m2": 186473.926419, "full_cell_area_m2": 250000, "area_ratio": 0.745896, "is_boundary_cell": true, "CCTV": 8, "가로등": 38, "경찰서": 0, "비상벨": 7, "지구대": 0.0, "파출소": 0.0, "CCTV보정개수": 10.72536, "가로등보정개수": 50.94546, "비상벨보정개수": 9.38469, "경찰서보정개수": 0.0, "안전점수": 32.17608, "안전등급": "E", "CCTV개수": 8, "가로등개수": 38, "비상벨개수": 7, "경찰서개수": 0, "전체시설개수": 53, "전체시설보정개수": 71.05551 }, "geometry": { "type": "Polygon", "coordinates": [ [ [ 127.107059163453187, 37.545151724580037 ], [ 127.107035505861361, 37.549658415403321 ], [ 127.111531906984183, 37.549673293982138 ], [ 127.111509563406116, 37.548612431788051 ], [ 127.111470750595174, 37.546926344180449 ], [ 127.110341408202316, 37.545162601286812 ], [ 127.107059163453187, 37.545151724580037 ] ] ] } },
{ "type": "Feature", "properties": { "grid_id": "G0088", "cell_area_m2": 231637.61148699999, "full_cell_area_m2": 250000, "area_ratio": 0.92655, "is_boundary_cell": true, "CCTV": 3, "가로등": 41, "경찰서": 0, "비상벨": 3, "지구대": 0.0, "파출소": 0.0, "CCTV보정개수": 3.237816, "가로등보정개수": 44.250154, "비상벨보정개수": 3.237816, "경찰서보정개수": 0.0, "안전점수": 18.779334, "안전등급": "E", "CCTV개수": 3, "가로등개수": 41, "비상벨개수": 3, "경찰서개수": 0, "전체시설개수": 47, "전체시설보정개수": 50.725786 }, "geometry": { "type": "Polygon", "coordinates": [ [ [ 127.107035505861361, 37.549658415403321 ], [ 127.107011842999455, 37.554165102765467 ], [ 127.112672547439175, 37.55418380801899 ], [ 127.112683312531431, 37.552103714455775 ], [ 127.111549574744544, 37.550512133663482 ], [ 127.111531906984183, 37.549673293982138 ], [ 127.107035505861361, 37.549658415403321 ] ] ] } },
{ "type": "Feature", "properties": { "grid_id": "G0089", "cell_area_m2": 226056.84923600001, "full_cell_area_m2": 250000, "area_ratio": 0.904227, "is_boundary_cell": true, "CCTV": 0, "가로등": 13, "경찰서": 0, "비상벨": 0, "지구대": 0.0, "파출소": 0.0, "CCTV보정개수": 0.0, "가로등보정개수": 14.376915, "비상벨보정개수": 0.0, "경찰서보정개수": 0.0, "안전점수": 4.313074, "안전등급": "E", "CCTV개수": 0, "가로등개수": 13, "비상벨개수": 0, "경찰서개수": 0, "전체시설개수": 13, "전체시설보정개수": 14.376915 }, "geometry": { "type": "Polygon", "coordinates": [ [ [ 127.112649220207004, 37.558690494945786 ], [ 127.112672547439175, 37.55418380801899 ], [ 127.107011842999455, 37.554165102765467 ], [ 127.106996836368396, 37.557022654213561 ], [ 127.107077794239871, 37.557075712773091 ], [ 127.107141371080104, 37.557104388481378 ], [ 127.107516982878295, 37.55760466877625 ], [ 127.10765131218966, 37.557709198055555 ], [ 127.1080455070189, 37.557894482974305 ], [ 127.10824002028852, 37.557995902911422 ], [ 127.108305914027213, 37.558029396187372 ], [ 127.108520684151614, 37.55822409480259 ], [ 127.10854374537719, 37.558244922799474 ], [ 127.109020618696476, 37.558349842301048 ], [ 127.109215016102212, 37.558392606312992 ], [ 127.109528567044805, 37.558553443858074 ], [ 127.109987293985114, 37.558340930429104 ], [ 127.110349285909464, 37.558252588685903 ], [ 127.110826231566151, 37.558358780231835 ], [ 127.111022177173112, 37.558406972801116 ], [ 127.111421295352955, 37.558514819831707 ], [ 127.111607982373954, 37.558600465165306 ], [ 127.111794420208042, 37.558685686969874 ], [ 127.111797633150445, 37.558687698017515 ], [ 127.112649220207004, 37.558690494945786 ] ] ] } },
{ "type": "Feature", "properties": { "grid_id": "G0090", "cell_area_m2": 1660.189551, "full_cell_area_m2": 250000, "area_ratio": 0.006641, "is_boundary_cell": true, "CCTV": 0, "가로등": 0, "경찰서": 0, "비상벨": 0, "지구대": null, "파출소": null, "CCTV보정개수": 0.0, "가로등보정개수": 0.0, "비상벨보정개수": 0.0, "경찰서보정개수": 0.0, "안전점수": 0.0, "안전등급": "E", "CCTV개수": 0, "가로등개수": 0, "비상벨개수": 0, "경찰서개수": 0, "전체시설개수": 0, "전체시설보정개수": 0.0 }, "geometry": { "type": "Polygon", "coordinates": [ [ [ 127.112649220207004, 37.558690494945786 ], [ 127.111797633150445, 37.558687698017515 ], [ 127.112296951635088, 37.559000229490465 ], [ 127.112648126281144, 37.558901810396179 ], [ 127.112649220207004, 37.558690494945786 ] ] ] } },
{ "type": "Feature", "properties": { "grid_id": "G0091", "cell_area_m2": 15063.688094, "full_cell_area_m2": 250000, "area_ratio": 0.060255, "is_boundary_cell": true, "CCTV": 0, "가로등": 0, "경찰서": 0, "비상벨": 0, "지구대": null, "파출소": null, "CCTV보정개수": 0.0, "가로등보정개수": 0.0, "비상벨보정개수": 0.0, "경찰서보정개수": 0.0, "안전점수": 0.0, "안전등급": "E", "CCTV개수": 0, "가로등개수": 0, "비상벨개수": 0, "경찰서개수": 0, "전체시설개수": 0, "전체시설보정개수": 0.0 }, "geometry": { "type": "Polygon", "coordinates": [ [ [ 127.112672547439175, 37.55418380801899 ], [ 127.11413270322933, 37.554188588931979 ], [ 127.114088246228789, 37.554084537334731 ], [ 127.11408258513427, 37.554075298572918 ], [ 127.11407427187622, 37.554063413427961 ], [ 127.114019490658464, 37.553991134146187 ], [ 127.113958065199981, 37.553918014234284 ], [ 127.112762744298891, 37.552215220610684 ], [ 127.112683312531431, 37.552103714455775 ], [ 127.112672547439175, 37.55418380801899 ] ] ] } },
{ "type": "Feature", "properties": { "grid_id": "G0092", "cell_area_m2": 68958.936279000001, "full_cell_area_m2": 250000, "area_ratio": 0.275836, "is_boundary_cell": true, "CCTV": 0, "가로등": 3, "경찰서": 0, "비상벨": 0, "지구대": 0.0, "파출소": 0.0, "CCTV보정개수": 0.0, "가로등보정개수": 10.876038, "비상벨보정개수": 0.0, "경찰서보정개수": 0.0, "안전점수": 3.262811, "안전등급": "E", "CCTV개수": 0, "가로등개수": 3, "비상벨개수": 0, "경찰서개수": 0, "전체시설개수": 3, "전체시설보정개수": 10.876038 }, "geometry": { "type": "Polygon", "coordinates": [ [ [ 127.112672547439175, 37.55418380801899 ], [ 127.112649220207004, 37.558690494945786 ], [ 127.113230665027402, 37.558692401097908 ], [ 127.113600566119771, 37.558553748316903 ], [ 127.113654770126644, 37.558533424590401 ], [ 127.113806708018387, 37.558471544403325 ], [ 127.113869996108335, 37.558426002254187 ], [ 127.113890323340343, 37.558411368862139 ], [ 127.113917987787815, 37.558391439674288 ], [ 127.113629310321741, 37.557939985020049 ], [ 127.113560195492781, 37.557487672776631 ], [ 127.113389708935301, 37.557177930036694 ], [ 127.113381664843217, 37.557156989648497 ], [ 127.113374631178189, 37.557115451679209 ], [ 127.113374700970652, 37.557093999049535 ], [ 127.11337740273207, 37.557076769567949 ], [ 127.113385312838531, 37.557045939218106 ], [ 127.113383942405477, 37.557014973501794 ], [ 127.11338136936925, 37.556989604070452 ], [ 127.113377905942528, 37.556951558557721 ], [ 127.113368580884867, 37.556921627504344 ], [ 127.113342192079713, 37.556870962818692 ], [ 127.11332978059437, 37.556850756363424 ], [ 127.113316593677624, 37.556834208659147 ], [ 127.113962428050044, 37.556821900565112 ], [ 127.11436497937953, 37.556807587237458 ], [ 127.115225576045219, 37.556759946215919 ], [ 127.115088979853425, 37.556442749098565 ], [ 127.114820785422637, 37.555818170329594 ], [ 127.114637629768595, 37.555363715452856 ], [ 127.114483443340646, 37.555003467085847 ], [ 127.114298836456669, 37.554574610132967 ], [ 127.114189764017809, 37.554320238628385 ], [ 127.114140840641682, 37.554207634510334 ], [ 127.11413270322933, 37.554188588931979 ], [ 127.112672547439175, 37.55418380801899 ] ] ] } },
{ "type": "Feature", "properties": { "grid_id": "G0093", "cell_area_m2": 623.383051, "full_cell_area_m2": 250000, "area_ratio": 0.002494, "is_boundary_cell": true, "CCTV": 0, "가로등": 0, "경찰서": 0, "비상벨": 0, "지구대": null, "파출소": null, "CCTV보정개수": 0.0, "가로등보정개수": 0.0, "비상벨보정개수": 0.0, "경찰서보정개수": 0.0, "안전점수": 0.0, "안전등급": "E", "CCTV개수": 0, "가로등개수": 0, "비상벨개수": 0, "경찰서개수": 0, "전체시설개수": 0, "전체시설보정개수": 0.0 }, "geometry": { "type": "Polygon", "coordinates": [ [ [ 127.112649220207004, 37.558690494945786 ], [ 127.112648126281144, 37.558901810396179 ], [ 127.112742708990993, 37.558875302721844 ], [ 127.113230665027402, 37.558692401097908 ], [ 127.112649220207004, 37.558690494945786 ] ] ] } }
]
}
