{
"type": "FeatureCollection",
"name": "gwangjin_safety_grid",
"crs": { "type": "name", "properties": { "name": "urn:ogc:def:crs:OGC:1.3:CRS84" } },
"features": [
{ "type": "Feature", "properties": { "격자번호": 3, "행번호": 0, "열번호": 2, "중심위도": 37.522513785515486, "중심경도": 127.06753266973153, "격자한변길이_m": 500, "격자전체면적_m2": 250000, "CCTV개수": 0, "가로등개수": 0, "비상벨개수": 0, "경찰서개수": 0, "지구대개수": 0, "파출소개수": 0, "전체시설개수": 0, "안전점수": 0.0, "안전등급": "E", "등급색상": "red" }, "geometry": { "type": "Polygon", "coordinates": [ [ [ 127.070361359461984, 37.524766286145947 ], [ 127.070361359461984, 37.523641886058556 ], [ 127.068663077977419, 37.523870274750074 ], [ 127.067455940356936, 37.52459568814708 ], [ 127.066706019941066, 37.524766286145947 ], [ 127.070361359461984, 37.524766286145947 ] ] ] } },
{ "type": "Feature", "properties": { "격자번호": 4, "행번호": 0, "열번호": 3, "중심위도": 37.522513785515486, "중심경도": 127.07319004919243, "격자한변길이_m": 500, "격자전체면적_m2": 250000, "CCTV개수": 0, "가로등개수": 0, "비상벨개수": 0, "경찰서개수": 0, "지구대개수": 0, "파출소개수": 0, "전체시설개수": 0, "안전점수": 0.0, "안전등급": "E", "등급색상": "red" }, "geometry": { "type": "Polygon", "coordinates": [ [ [ 127.070361359461984, 37.524766286145947 ], [ 127.076018738922883, 37.524766286145947 ], [ 127.076018738922883, 37.522637575210972 ], [ 127.074318337421488, 37.522865540517678 ], [ 127.07205006694889, 37.52341478489965 ], [ 127.070361359461984, 37.523641886058556 ], [ 127.070361359461984, 37.524766286145947 ] ] ] } },
{ "type": "Feature", "properties": { "격자번호": 5, "행번호": 0, "열번호": 4, "중심위도": 37.522513785515486, "중심경도": 127.07884742865333, "격자한변길이_m": 500, "격자전체면적_m2": 250000, "CCTV개수": 0, "가로등개수": 0, "비상벨개수": 0, "경찰서개수": 0, "지구대개수": 0, "파출소개수": 0, "전체시설개수": 0, "안전점수": 0.0, "안전등급": "E", "등급색상": "red" }, "geometry": { "type": "Polygon", "coordinates": [ [ [ 127.076018738922883, 37.524766286145947 ], [ 127.081676118383783, 37.524766286145947 ], [ 127.081676118383783, 37.523573366189844 ], [ 127.081127336008521, 37.523409015598517 ], [ 127.079974587071476, 37.522951495779829 ], [ 127.076942090757001, 37.522513785515486 ], [ 127.076018738922883, 37.522637575210972 ], [ 127.076018738922883, 37.524766286145947 ] ] ] } },
{ "type": "Feature", "properties": { "격자번호": 6, "행번호": 0, "열번호": 5, "중심위도": 37.522513785515486, "중심경도": 127.08450480811423, "격자한변길이_m": 500, "격자전체면적_m2": 250000, "CCTV개수": 0, "가로등개수": 0, "비상벨개수": 0, "경찰서개수": 0, "지구대개수": 0, "파출소개수": 0, "전체시설개수": 0, "안전점수": 0.0, "안전등급": "E", "등급색상": "red" }, "geometry": { "type": "Polygon", "coordinates": [ [ [ 127.081676118383783, 37.524766286145947 ], [ 127.085648287710157, 37.524766286145947 ], [ 127.085632781688247, 37.524758565661301 ], [ 127.082387209413966, 37.52378632534554 ], [ 127.081676118383783, 37.523573366189844 ], [ 127.081676118383783, 37.524766286145947 ] ] ] } },
{ "type": "Feature", "properties": { "격자번호": 13, "행번호": 1, "열번호": 0, "중심위도": 37.527018786776409, "중심경도": 127.05621791080974, "격자한변길이_m": 500, "격자전체면적_m2": 250000, "CCTV개수": 0, "가로등개수": 0, "비상벨개수": 0, "경찰서개수": 0, "지구대개수": 0, "파출소개수": 0, "전체시설개수": 0, "안전점수": 0.0, "안전등급": "E", "등급색상": "red" }, "geometry": { "type": "Polygon", "coordinates": [ [ [ 127.059046600540185, 37.529271287406871 ], [ 127.059046600540185, 37.527428540679466 ], [ 127.057353656346848, 37.527963092745921 ], [ 127.056217910809735, 37.528316994218038 ], [ 127.056742741187193, 37.529271287406871 ], [ 127.059046600540185, 37.529271287406871 ] ] ] } },
{ "type": "Feature", "properties": { "격자번호": 14, "행번호": 1, "열번호": 1, "중심위도": 37.527018786776409, "중심경도": 127.06187529027063, "격자한변길이_m": 500, "격자전체면적_m2": 250000, "CCTV개수": 0, "가로등개수": 0, "비상벨개수": 0, "경찰서개수": 0, "지구대개수": 0, "파출소개수": 0, "전체시설개수": 0, "안전점수": 0.0, "안전등급": "E", "등급색상": "red" }, "geometry": { "type": "Polygon", "coordinates": [ [ [ 127.059046600540185, 37.529271287406871 ], [ 127.064703980001084, 37.529271287406871 ], [ 127.064703980001084, 37.52533291626527 ], [ 127.06300857157585, 37.525977510312842 ], [ 127.060324043013225, 37.527025184492992 ], [ 127.059046600540185, 37.527428540679466 ], [ 127.059046600540185, 37.529271287406871 ] ] ] } },
{ "type": "Feature", "properties": { "격자번호": 15, "행번호": 1, "열번호": 2, "중심위도": 37.527018786776409, "중심경도": 127.06753266973153, "격자한변길이_m": 500, "격자전체면적_m2": 250000, "CCTV개수": 0, "가로등개수": 0, "비상벨개수": 0, "경찰서개수": 0, "지구대개수": 0, "파출소개수": 0, "전체시설개수": 0, "안전점수": 0.0, "안전등급": "E", "등급색상": "red" }, "geometry": { "type": "Polygon", "coordinates": [ [ [ 127.064703980001084, 37.529271287406871 ], [ 127.070361359461984, 37.529271287406871 ], [ 127.070361359461984, 37.524766286145947 ], [ 127.066706019941066, 37.524766286145947 ], [ 127.06543208246319, 37.525056091810399 ], [ 127.064703980001084, 37.52533291626527 ], [ 127.064703980001084, 37.529271287406871 ] ] ] } },
{ "type": "Feature", "properties": { "격자번호": 16, "행번호": 1, "열번호": 3, "중심위도": 37.527018786776409, "중심경도": 127.07319004919243, "격자한변길이_m": 500, "격자전체면적_m2": 250000, "CCTV개수": 0, "가로등개수": 0, "비상벨개수": 0, "경찰서개수": 0, "지구대개수": 0, "파출소개수": 0, "전체시설개수": 0, "안전점수": 0.0, "안전등급": "E", "등급색상": "red" }, "geometry": { "type": "Polygon", "coordinates": [ [ [ 127.070361359461984, 37.524766286145947 ], [ 127.070361359461984, 37.529271287406871 ], [ 127.076018738922883, 37.529271287406871 ], [ 127.076018738922883, 37.524766286145947 ], [ 127.070361359461984, 37.524766286145947 ] ] ] } },
{ "type": "Feature", "properties": { "격자번호": 17, "행번호": 1, "열번호": 4, "중심위도": 37.527018786776409, "중심경도": 127.07884742865333, "격자한변길이_m": 500, "격자전체면적_m2": 250000, "CCTV개수": 4, "가로등개수": 0, "비상벨개수": 4, "경찰서개수": 0, "지구대개수": 0, "파출소개수": 0, "전체시설개수": 8, "안전점수": 8.0, "안전등급": "E", "등급색상": "red" }, "geometry": { "type": "Polygon", "coordinates": [ [ [ 127.076018738922883, 37.524766286145947 ], [ 127.076018738922883, 37.529271287406871 ], [ 127.081676118383783, 37.529271287406871 ], [ 127.081676118383783, 37.524766286145947 ], [ 127.076018738922883, 37.524766286145947 ] ] ] } },
{ "type": "Feature", "properties": { "격자번호": 18, "행번호": 1, "열번호": 5, "중심위도": 37.527018786776409, "중심경도": 127.08450480811423, "격자한변길이_m": 500, "격자전체면적_m2": 250000, "CCTV개수": 7, "가로등개수": 1, "비상벨개수": 6, "경찰서개수": 0, "지구대개수": 0, "파출소개수": 0, "전체시설개수": 14, "안전점수": 13.75, "안전등급": "E", "등급색상": "red" }, "geometry": { "type": "Polygon", "coordinates": [ [ [ 127.081676118383783, 37.524766286145947 ], [ 127.081676118383783, 37.529271287406871 ], [ 127.087333497844682, 37.529271287406871 ], [ 127.087333497844682, 37.525603973651052 ], [ 127.085766571579242, 37.524825179961567 ], [ 127.085648287710157, 37.524766286145947 ], [ 127.081676118383783, 37.524766286145947 ] ] ] } },
{ "type": "Feature", "properties": { "격자번호": 19, "행번호": 1, "열번호": 6, "중심위도": 37.527018786776409, "중심경도": 127.09016218757513, "격자한변길이_m": 500, "격자전체면적_m2": 250000, "CCTV개수": 0, "가로등개수": 0, "비상벨개수": 0, "경찰서개수": 0, "지구대개수": 0, "파출소개수": 0, "전체시설개수": 0, "안전점수": 0.0, "안전등급": "E", "등급색상": "red" }, "geometry": { "type": "Polygon", "coordinates": [ [ [ 127.087333497844682, 37.529271287406871 ], [ 127.092968379816696, 37.529271287406871 ], [ 127.091292907546929, 37.527949587045242 ], [ 127.090160992208922, 37.527006560292115 ], [ 127.088754762167838, 37.526309453700762 ], [ 127.088266344479337, 37.52606761708364 ], [ 127.087333497844682, 37.525603973651052 ], [ 127.087333497844682, 37.529271287406871 ] ] ] } },
{ "type": "Feature", "properties": { "격자번호": 25, "행번호": 2, "열번호": 0, "중심위도": 37.531523788037333, "중심경도": 127.05621791080974, "격자한변길이_m": 500, "격자전체면적_m2": 250000, "CCTV개수": 0, "가로등개수": 0, "비상벨개수": 0, "경찰서개수": 0, "지구대개수": 0, "파출소개수": 0, "전체시설개수": 0, "안전점수": 0.0, "안전등급": "E", "등급색상": "red" }, "geometry": { "type": "Polygon", "coordinates": [ [ [ 127.059046600540185, 37.529271287406871 ], [ 127.056742741187193, 37.529271287406871 ], [ 127.057355450527567, 37.530385369928318 ], [ 127.05749149701731, 37.53063053809425 ], [ 127.057859130294105, 37.531294125562987 ], [ 127.057905431860846, 37.531377697683119 ], [ 127.058344570663792, 37.532169650021004 ], [ 127.058577410386221, 37.53258977026308 ], [ 127.058622058994686, 37.532669738906982 ], [ 127.058630329374409, 37.532684565264553 ], [ 127.058989821720147, 37.533328457190791 ], [ 127.059046600540185, 37.533430940389252 ], [ 127.059046600540185, 37.529271287406871 ] ] ] } },
{ "type": "Feature", "properties": { "격자번호": 26, "행번호": 2, "열번호": 1, "중심위도": 37.531523788037333, "중심경도": 127.06187529027063, "격자한변길이_m": 500, "격자전체면적_m2": 250000, "CCTV개수": 4, "가로등개수": 0, "비상벨개수": 4, "경찰서개수": 0, "지구대개수": 0, "파출소개수": 0, "전체시설개수": 8, "안전점수": 8.0, "안전등급": "E", "등급색상": "red" }, "geometry": { "type": "Polygon", "coordinates": [ [ [ 127.064703980001084, 37.533776288667795 ], [ 127.064703980001084, 37.529271287406871 ], [ 127.059046600540185, 37.529271287406871 ], [ 127.059046600540185, 37.533430940389252 ], [ 127.059058025973115, 37.533451562778197 ], [ 127.059238454747941, 37.533776288667795 ], [ 127.064703980001084, 37.533776288667795 ] ] ] } },
{ "type": "Feature", "properties": { "격자번호": 27, "행번호": 2, "열번호": 2, "중심위도": 37.531523788037333, "중심경도": 127.06753266973153, "격자한변길이_m": 500, "격자전체면적_m2": 250000, "CCTV개수": 10, "가로등개수": 58, "비상벨개수": 9, "경찰서개수": 0, "지구대개수": 0, "파출소개수": 0, "전체시설개수": 77, "안전점수": 34.0, "안전등급": "D", "등급색상": "orange" }, "geometry": { "type": "Polygon", "coordinates": [ [ [ 127.064703980001084, 37.529271287406871 ], [ 127.064703980001084, 37.533776288667795 ], [ 127.070361359461984, 37.533776288667795 ], [ 127.070361359461984, 37.529271287406871 ], [ 127.064703980001084, 37.529271287406871 ] ] ] } },
{ "type": "Feature", "properties": { "격자번호": 28, "행번호": 2, "열번호": 3, "중심위도": 37.531523788037333, "중심경도": 127.07319004919243, "격자한변길이_m": 500, "격자전체면적_m2": 250000, "CCTV개수": 27, "가로등개수": 30, "비상벨개수": 25, "경찰서개수": 0, "지구대개수": 0, "파출소개수": 0, "전체시설개수": 82, "안전점수": 42.5, "안전등급": "C", "등급색상": "yellow" }, "geometry": { "type": "Polygon", "coordinates": [ [ [ 127.070361359461984, 37.529271287406871 ], [ 127.070361359461984, 37.533776288667795 ], [ 127.076018738922883, 37.533776288667795 ], [ 127.076018738922883, 37.529271287406871 ], [ 127.070361359461984, 37.529271287406871 ] ] ] } },
{ "type": "Feature", "properties": { "격자번호": 29, "행번호": 2, "열번호": 4, "중심위도": 37.531523788037333, "중심경도": 127.07884742865333, "격자한변길이_m": 500, "격자전체면적_m2": 250000, "CCTV개수": 31, "가로등개수": 54, "비상벨개수": 26, "경찰서개수": 0, "지구대개수": 0, "파출소개수": 0, "전체시설개수": 111, "안전점수": 48.5, "안전등급": "C", "등급색상": "yellow" }, "geometry": { "type": "Polygon", "coordinates": [ [ [ 127.076018738922883, 37.529271287406871 ], [ 127.076018738922883, 37.533776288667795 ], [ 127.081676118383783, 37.533776288667795 ], [ 127.081676118383783, 37.529271287406871 ], [ 127.076018738922883, 37.529271287406871 ] ] ] } },
{ "type": "Feature", "properties": { "격자번호": 30, "행번호": 2, "열번호": 5, "중심위도": 37.531523788037333, "중심경도": 127.08450480811423, "격자한변길이_m": 500, "격자전체면적_m2": 250000, "CCTV개수": 37, "가로등개수": 55, "비상벨개수": 32, "경찰서개수": 0, "지구대개수": 0, "파출소개수": 0, "전체시설개수": 124, "안전점수": 48.75, "안전등급": "C", "등급색상": "yellow" }, "geometry": { "type": "Polygon", "coordinates": [ [ [ 127.081676118383783, 37.529271287406871 ], [ 127.081676118383783, 37.533776288667795 ], [ 127.087333497844682, 37.533776288667795 ], [ 127.087333497844682, 37.529271287406871 ], [ 127.081676118383783, 37.529271287406871 ] ] ] } },
{ "type": "Feature", "properties": { "격자번호": 31, "행번호": 2, "열번호": 6, "중심위도": 37.531523788037333, "중심경도": 127.09016218757513, "격자한변길이_m": 500, "격자전체면적_m2": 250000, "CCTV개수": 24, "가로등개수": 37, "비상벨개수": 20, "경찰서개수": 0, "지구대개수": 0, "파출소개수": 0, "전체시설개수": 81, "안전점수": 44.25, "안전등급": "C", "등급색상": "yellow" }, "geometry": { "type": "Polygon", "coordinates": [ [ [ 127.087333497844682, 37.529271287406871 ], [ 127.087333497844682, 37.533776288667795 ], [ 127.092990877305581, 37.533776288667795 ], [ 127.092990877305581, 37.529289034605519 ], [ 127.092968379816696, 37.529271287406871 ], [ 127.087333497844682, 37.529271287406871 ] ] ] } },
{ "type": "Feature", "properties": { "격자번호": 32, "행번호": 2, "열번호": 7, "중심위도": 37.531523788037333, "중심경도": 127.09581956703603, "격자한변길이_m": 500, "격자전체면적_m2": 250000, "CCTV개수": 1, "가로등개수": 4, "비상벨개수": 0, "경찰서개수": 0, "지구대개수": 0, "파출소개수": 0, "전체시설개수": 5, "안전점수": 2.5, "안전등급": "E", "등급색상": "red" }, "geometry": { "type": "Polygon", "coordinates": [ [ [ 127.092990877305581, 37.533776288667795 ], [ 127.098648256766481, 37.533776288667795 ], [ 127.098648256766481, 37.533767357303091 ], [ 127.096955152146194, 37.532425015294393 ], [ 127.094661707741068, 37.53060707324493 ], [ 127.092990877305581, 37.529289034605519 ], [ 127.092990877305581, 37.533776288667795 ] ] ] } },
{ "type": "Feature", "properties": { "격자번호": 33, "행번호": 2, "열번호": 8, "중심위도": 37.531523788037333, "중심경도": 127.10147694649693, "격자한변길이_m": 500, "격자전체면적_m2": 250000, "CCTV개수": 0, "가로등개수": 0, "비상벨개수": 0, "경찰서개수": 0, "지구대개수": 0, "파출소개수": 0, "전체시설개수": 0, "안전점수": 0.0, "안전등급": "E", "등급색상": "red" }, "geometry": { "type": "Polygon", "coordinates": [ [ [ 127.098648256766481, 37.533776288667795 ], [ 127.098659521954303, 37.533776288667795 ], [ 127.098648256766481, 37.533767357303091 ], [ 127.098648256766481, 37.533776288667795 ] ] ] } },
{ "type": "Feature", "properties": { "격자번호": 38, "행번호": 3, "열번호": 1, "중심위도": 37.536028789298257, "중심경도": 127.06187529027063, "격자한변길이_m": 500, "격자전체면적_m2": 250000, "CCTV개수": 23, "가로등개수": 32, "비상벨개수": 19, "경찰서개수": 0, "지구대개수": 0, "파출소개수": 1, "전체시설개수": 75, "안전점수": 58.0, "안전등급": "C", "등급색상": "yellow" }, "geometry": { "type": "Polygon", "coordinates": [ [ [ 127.064703980001084, 37.538281289928719 ], [ 127.064703980001084, 37.533776288667795 ], [ 127.059238454747941, 37.533776288667795 ], [ 127.059277209250723, 37.533846036912784 ], [ 127.059499284388821, 37.53424628456181 ], [ 127.059519558099296, 37.534244932126661 ], [ 127.059555110676513, 37.534308326581638 ], [ 127.060702206430378, 37.536353633803536 ], [ 127.060717037792713, 37.53638003447923 ], [ 127.061571711450483, 37.537901542369767 ], [ 127.061595669229504, 37.537907512777643 ], [ 127.061801661042182, 37.538281289928719 ], [ 127.064703980001084, 37.538281289928719 ] ] ] } },
{ "type": "Feature", "properties": { "격자번호": 39, "행번호": 3, "열번호": 2, "중심위도": 37.536028789298257, "중심경도": 127.06753266973153, "격자한변길이_m": 500, "격자전체면적_m2": 250000, "CCTV개수": 38, "가로등개수": 69, "비상벨개수": 30, "경찰서개수": 0, "지구대개수": 0, "파출소개수": 0, "전체시설개수": 137, "안전점수": 52.25, "안전등급": "C", "등급색상": "yellow" }, "geometry": { "type": "Polygon", "coordinates": [ [ [ 127.064703980001084, 37.533776288667795 ], [ 127.064703980001084, 37.538281289928719 ], [ 127.070361359461984, 37.538281289928719 ], [ 127.070361359461984, 37.533776288667795 ], [ 127.064703980001084, 37.533776288667795 ] ] ] } },
{ "type": "Feature", "properties": { "격자번호": 40, "행번호": 3, "열번호": 3, "중심위도": 37.536028789298257, "중심경도": 127.07319004919243, "격자한변길이_m": 500, "격자전체면적_m2": 250000, "CCTV개수": 17, "가로등개수": 47, "비상벨개수": 14, "경찰서개수": 0, "지구대개수": 0, "파출소개수": 1, "전체시설개수": 79, "안전점수": 57.25, "안전등급": "C", "등급색상": "yellow" }, "geometry": { "type": "Polygon", "coordinates": [ [ [ 127.070361359461984, 37.533776288667795 ], [ 127.070361359461984, 37.538281289928719 ], [ 127.076018738922883, 37.538281289928719 ], [ 127.076018738922883, 37.533776288667795 ], [ 127.070361359461984, 37.533776288667795 ] ] ] } },
{ "type": "Feature", "properties": { "격자번호": 41, "행번호": 3, "열번호": 4, "중심위도": 37.536028789298257, "중심경도": 127.07884742865333, "격자한변길이_m": 500, "격자전체면적_m2": 250000, "CCTV개수": 30, "가로등개수": 62, "비상벨개수": 26, "경찰서개수": 0, "지구대개수": 0, "파출소개수": 1, "전체시설개수": 119, "안전점수": 65.5, "안전등급": "B", "등급색상": "yellowgreen" }, "geometry": { "type": "Polygon", "coordinates": [ [ [ 127.076018738922883, 37.533776288667795 ], [ 127.076018738922883, 37.538281289928719 ], [ 127.081676118383783, 37.538281289928719 ], [ 127.081676118383783, 37.533776288667795 ], [ 127.076018738922883, 37.533776288667795 ] ] ] } },
{ "type": "Feature", "properties": { "격자번호": 42, "행번호": 3, "열번호": 5, "중심위도": 37.536028789298257, "중심경도": 127.08450480811423, "격자한변길이_m": 500, "격자전체면적_m2": 250000, "CCTV개수": 25, "가로등개수": 86, "비상벨개수": 22, "경찰서개수": 0, "지구대개수": 0, "파출소개수": 0, "전체시설개수": 133, "안전점수": 55.0, "안전등급": "C", "등급색상": "yellow" }, "geometry": { "type": "Polygon", "coordinates": [ [ [ 127.081676118383783, 37.533776288667795 ], [ 127.081676118383783, 37.538281289928719 ], [ 127.087333497844682, 37.538281289928719 ], [ 127.087333497844682, 37.533776288667795 ], [ 127.081676118383783, 37.533776288667795 ] ] ] } },
{ "type": "Feature", "properties": { "격자번호": 43, "행번호": 3, "열번호": 6, "중심위도": 37.536028789298257, "중심경도": 127.09016218757513, "격자한변길이_m": 500, "격자전체면적_m2": 250000, "CCTV개수": 30, "가로등개수": 69, "비상벨개수": 22, "경찰서개수": 0, "지구대개수": 0, "파출소개수": 0, "전체시설개수": 121, "안전점수": 52.25, "안전등급": "C", "등급색상": "yellow" }, "geometry": { "type": "Polygon", "coordinates": [ [ [ 127.087333497844682, 37.533776288667795 ], [ 127.087333497844682, 37.538281289928719 ], [ 127.092990877305581, 37.538281289928719 ], [ 127.092990877305581, 37.533776288667795 ], [ 127.087333497844682, 37.533776288667795 ] ] ] } },
{ "type": "Feature", "properties": { "격자번호": 44, "행번호": 3, "열번호": 7, "중심위도": 37.536028789298257, "중심경도": 127.09581956703603, "격자한변길이_m": 500, "격자전체면적_m2": 250000, "CCTV개수": 18, "가로등개수": 104, "비상벨개수": 10, "경찰서개수": 0, "지구대개수": 0, "파출소개수": 0, "전체시설개수": 132, "안전점수": 52.0, "안전등급": "C", "등급색상": "yellow" }, "geometry": { "type": "Polygon", "coordinates": [ [ [ 127.092990877305581, 37.533776288667795 ], [ 127.092990877305581, 37.538281289928719 ], [ 127.098648256766481, 37.538281289928719 ], [ 127.098648256766481, 37.533776288667795 ], [ 127.092990877305581, 37.533776288667795 ] ] ] } },
{ "type": "Feature", "properties": { "격자번호": 45, "행번호": 3, "열번호": 8, "중심위도": 37.536028789298257, "중심경도": 127.10147694649693, "격자한변길이_m": 500, "격자전체면적_m2": 250000, "CCTV개수": 0, "가로등개수": 0, "비상벨개수": 0, "경찰서개수": 0, "지구대개수": 0, "파출소개수": 0, "전체시설개수": 0, "안전점수": 0.0, "안전등급": "E", "등급색상": "red" }, "geometry": { "type": "Polygon", "coordinates": [ [ [ 127.098648256766481, 37.533776288667795 ], [ 127.098648256766481, 37.538281289928719 ], [ 127.10430563622738, 37.538281289928719 ], [ 127.10430563622738, 37.53826636542621 ], [ 127.103724822719926, 37.537807523912477 ], [ 127.102618100418567, 37.536920187753338 ], [ 127.102029993718702, 37.536444560056317 ], [ 127.099203258308222, 37.534207378478065 ], [ 127.098659521954303, 37.533776288667795 ], [ 127.098648256766481, 37.533776288667795 ] ] ] } },
{ "type": "Feature", "properties": { "격자번호": 46, "행번호": 3, "열번호": 9, "중심위도": 37.536028789298257, "중심경도": 127.10713432595783, "격자한변길이_m": 500, "격자전체면적_m2": 250000, "CCTV개수": 0, "가로등개수": 0, "비상벨개수": 0, "경찰서개수": 0, "지구대개수": 0, "파출소개수": 0, "전체시설개수": 0, "안전점수": 0.0, "안전등급": "E", "등급색상": "red" }, "geometry": { "type": "Polygon", "coordinates": [ [ [ 127.10430563622738, 37.538281289928719 ], [ 127.104324528050341, 37.538281289928719 ], [ 127.10430563622738, 37.53826636542621 ], [ 127.10430563622738, 37.538281289928719 ] ] ] } },
{ "type": "Feature", "properties": { "격자번호": 50, "행번호": 4, "열번호": 1, "중심위도": 37.540533790559181, "중심경도": 127.06187529027063, "격자한변길이_m": 500, "격자전체면적_m2": 250000, "CCTV개수": 8, "가로등개수": 19, "비상벨개수": 7, "경찰서개수": 0, "지구대개수": 0, "파출소개수": 0, "전체시설개수": 34, "안전점수": 20.25, "안전등급": "D", "등급색상": "orange" }, "geometry": { "type": "Polygon", "coordinates": [ [ [ 127.064703980001084, 37.542786291189643 ], [ 127.064703980001084, 37.538281289928719 ], [ 127.061801661042182, 37.538281289928719 ], [ 127.062263840245549, 37.53911992532727 ], [ 127.062292996094953, 37.539172825628839 ], [ 127.062513847611683, 37.539573536380786 ], [ 127.062710449765149, 37.539927948239956 ], [ 127.063020473569068, 37.540473671547687 ], [ 127.063566033514206, 37.541439421242458 ], [ 127.06396824169353, 37.542145767395844 ], [ 127.064014272716022, 37.542227895517264 ], [ 127.064047521213936, 37.542287253305076 ], [ 127.0640887805164, 37.542359608156353 ], [ 127.064329567078317, 37.542786291189643 ], [ 127.064703980001084, 37.542786291189643 ] ] ] } },
{ "type": "Feature", "properties": { "격자번호": 51, "행번호": 4, "열번호": 2, "중심위도": 37.540533790559181, "중심경도": 127.06753266973153, "격자한변길이_m": 500, "격자전체면적_m2": 250000, "CCTV개수": 31, "가로등개수": 37, "비상벨개수": 25, "경찰서개수": 0, "지구대개수": 0, "파출소개수": 0, "전체시설개수": 93, "안전점수": 44.25, "안전등급": "C", "등급색상": "yellow" }, "geometry": { "type": "Polygon", "coordinates": [ [ [ 127.064703980001084, 37.538281289928719 ], [ 127.064703980001084, 37.542786291189643 ], [ 127.070361359461984, 37.542786291189643 ], [ 127.070361359461984, 37.538281289928719 ], [ 127.064703980001084, 37.538281289928719 ] ] ] } },
{ "type": "Feature", "properties": { "격자번호": 52, "행번호": 4, "열번호": 3, "중심위도": 37.540533790559181, "중심경도": 127.07319004919243, "격자한변길이_m": 500, "격자전체면적_m2": 250000, "CCTV개수": 13, "가로등개수": 65, "비상벨개수": 10, "경찰서개수": 0, "지구대개수": 0, "파출소개수": 0, "전체시설개수": 88, "안전점수": 40.75, "안전등급": "C", "등급색상": "yellow" }, "geometry": { "type": "Polygon", "coordinates": [ [ [ 127.070361359461984, 37.538281289928719 ], [ 127.070361359461984, 37.542786291189643 ], [ 127.076018738922883, 37.542786291189643 ], [ 127.076018738922883, 37.538281289928719 ], [ 127.070361359461984, 37.538281289928719 ] ] ] } },
{ "type": "Feature", "properties": { "격자번호": 53, "행번호": 4, "열번호": 4, "중심위도": 37.540533790559181, "중심경도": 127.07884742865333, "격자한변길이_m": 500, "격자전체면적_m2": 250000, "CCTV개수": 7, "가로등개수": 5, "비상벨개수": 7, "경찰서개수": 0, "지구대개수": 0, "파출소개수": 0, "전체시설개수": 19, "안전점수": 15.25, "안전등급": "E", "등급색상": "red" }, "geometry": { "type": "Polygon", "coordinates": [ [ [ 127.076018738922883, 37.538281289928719 ], [ 127.076018738922883, 37.542786291189643 ], [ 127.081676118383783, 37.542786291189643 ], [ 127.081676118383783, 37.538281289928719 ], [ 127.076018738922883, 37.538281289928719 ] ] ] } },
{ "type": "Feature", "properties": { "격자번호": 54, "행번호": 4, "열번호": 5, "중심위도": 37.540533790559181, "중심경도": 127.08450480811423, "격자한변길이_m": 500, "격자전체면적_m2": 250000, "CCTV개수": 33, "가로등개수": 29, "비상벨개수": 28, "경찰서개수": 0, "지구대개수": 0, "파출소개수": 0, "전체시설개수": 90, "안전점수": 42.25, "안전등급": "C", "등급색상": "yellow" }, "geometry": { "type": "Polygon", "coordinates": [ [ [ 127.081676118383783, 37.538281289928719 ], [ 127.081676118383783, 37.542786291189643 ], [ 127.087333497844682, 37.542786291189643 ], [ 127.087333497844682, 37.538281289928719 ], [ 127.081676118383783, 37.538281289928719 ] ] ] } },
{ "type": "Feature", "properties": { "격자번호": 55, "행번호": 4, "열번호": 6, "중심위도": 37.540533790559181, "중심경도": 127.09016218757513, "격자한변길이_m": 500, "격자전체면적_m2": 250000, "CCTV개수": 41, "가로등개수": 21, "비상벨개수": 35, "경찰서개수": 0, "지구대개수": 0, "파출소개수": 0, "전체시설개수": 97, "안전점수": 40.25, "안전등급": "C", "등급색상": "yellow" }, "geometry": { "type": "Polygon", "coordinates": [ [ [ 127.087333497844682, 37.538281289928719 ], [ 127.087333497844682, 37.542786291189643 ], [ 127.092990877305581, 37.542786291189643 ], [ 127.092990877305581, 37.538281289928719 ], [ 127.087333497844682, 37.538281289928719 ] ] ] } },
{ "type": "Feature", "properties": { "격자번호": 56, "행번호": 4, "열번호": 7, "중심위도": 37.540533790559181, "중심경도": 127.09581956703603, "격자한변길이_m": 500, "격자전체면적_m2": 250000, "CCTV개수": 18, "가로등개수": 94, "비상벨개수": 16, "경찰서개수": 0, "지구대개수": 0, "파출소개수": 0, "전체시설개수": 128, "안전점수": 52.0, "안전등급": "C", "등급색상": "yellow" }, "geometry": { "type": "Polygon", "coordinates": [ [ [ 127.092990877305581, 37.538281289928719 ], [ 127.092990877305581, 37.542786291189643 ], [ 127.098648256766481, 37.542786291189643 ], [ 127.098648256766481, 37.538281289928719 ], [ 127.092990877305581, 37.538281289928719 ] ] ] } },
{ "type": "Feature", "properties": { "격자번호": 57, "행번호": 4, "열번호": 8, "중심위도": 37.540533790559181, "중심경도": 127.10147694649693, "격자한변길이_m": 500, "격자전체면적_m2": 250000, "CCTV개수": 10, "가로등개수": 56, "비상벨개수": 9, "경찰서개수": 0, "지구대개수": 0, "파출소개수": 0, "전체시설개수": 75, "안전점수": 33.5, "안전등급": "D", "등급색상": "orange" }, "geometry": { "type": "Polygon", "coordinates": [ [ [ 127.098648256766481, 37.538281289928719 ], [ 127.098648256766481, 37.542786291189643 ], [ 127.10430563622738, 37.542786291189643 ], [ 127.10430563622738, 37.538281289928719 ], [ 127.098648256766481, 37.538281289928719 ] ] ] } },
{ "type": "Feature", "properties": { "격자번호": 58, "행번호": 4, "열번호": 9, "중심위도": 37.540533790559181, "중심경도": 127.10713432595783, "격자한변길이_m": 500, "격자전체면적_m2": 250000, "CCTV개수": 0, "가로등개수": 0, "비상벨개수": 0, "경찰서개수": 0, "지구대개수": 0, "파출소개수": 0, "전체시설개수": 0, "안전점수": 0.0, "안전등급": "E", "등급색상": "red" }, "geometry": { "type": "Polygon", "coordinates": [ [ [ 127.10430563622738, 37.538281289928719 ], [ 127.10430563622738, 37.542786291189643 ], [ 127.109032629813811, 37.542786291189643 ], [ 127.10828171765489, 37.541407461832407 ], [ 127.104324528050341, 37.538281289928719 ], [ 127.10430563622738, 37.538281289928719 ] ] ] } },
{ "type": "Feature", "properties": { "격자번호": 62, "행번호": 5, "열번호": 1, "중심위도": 37.545038791820105, "중심경도": 127.06187529027063, "격자한변길이_m": 500, "격자전체면적_m2": 250000, "CCTV개수": 0, "가로등개수": 1, "비상벨개수": 0, "경찰서개수": 0, "지구대개수": 0, "파출소개수": 0, "전체시설개수": 1, "안전점수": 0.25, "안전등급": "E", "등급색상": "red" }, "geometry": { "type": "Polygon", "coordinates": [ [ [ 127.064703980001084, 37.542786291189643 ], [ 127.064329567078317, 37.542786291189643 ], [ 127.064586093193711, 37.543240865316037 ], [ 127.064598076194542, 37.543240858915894 ], [ 127.064703980001084, 37.543433702017438 ], [ 127.064703980001084, 37.542786291189643 ] ] ] } },
{ "type": "Feature", "properties": { "격자번호": 63, "행번호": 5, "열번호": 2, "중심위도": 37.545038791820105, "중심경도": 127.06753266973153, "격자한변길이_m": 500, "격자전체면적_m2": 250000, "CCTV개수": 35, "가로등개수": 16, "비상벨개수": 32, "경찰서개수": 0, "지구대개수": 0, "파출소개수": 0, "전체시설개수": 83, "안전점수": 39.0, "안전등급": "D", "등급색상": "orange" }, "geometry": { "type": "Polygon", "coordinates": [ [ [ 127.070361359461984, 37.547291292450566 ], [ 127.070361359461984, 37.542786291189643 ], [ 127.064703980001084, 37.542786291189643 ], [ 127.064703980001084, 37.543433702017438 ], [ 127.064845936999859, 37.543692195350424 ], [ 127.065153192085887, 37.54424539241554 ], [ 127.065606202007544, 37.545042299980835 ], [ 127.065853529171633, 37.545490679194238 ], [ 127.066620509622439, 37.546843728460495 ], [ 127.066878448549915, 37.547291292450566 ], [ 127.070361359461984, 37.547291292450566 ] ] ] } },
{ "type": "Feature", "properties": { "격자번호": 64, "행번호": 5, "열번호": 3, "중심위도": 37.545038791820105, "중심경도": 127.07319004919243, "격자한변길이_m": 500, "격자전체면적_m2": 250000, "CCTV개수": 26, "가로등개수": 59, "비상벨개수": 22, "경찰서개수": 0, "지구대개수": 1, "파출소개수": 0, "전체시설개수": 108, "안전점수": 64.75, "안전등급": "B", "등급색상": "yellowgreen" }, "geometry": { "type": "Polygon", "coordinates": [ [ [ 127.070361359461984, 37.542786291189643 ], [ 127.070361359461984, 37.547291292450566 ], [ 127.076018738922883, 37.547291292450566 ], [ 127.076018738922883, 37.542786291189643 ], [ 127.070361359461984, 37.542786291189643 ] ] ] } },
{ "type": "Feature", "properties": { "격자번호": 65, "행번호": 5, "열번호": 4, "중심위도": 37.545038791820105, "중심경도": 127.07884742865333, "격자한변길이_m": 500, "격자전체면적_m2": 250000, "CCTV개수": 10, "가로등개수": 34, "비상벨개수": 9, "경찰서개수": 0, "지구대개수": 0, "파출소개수": 0, "전체시설개수": 53, "안전점수": 28.0, "안전등급": "D", "등급색상": "orange" }, "geometry": { "type": "Polygon", "coordinates": [ [ [ 127.076018738922883, 37.542786291189643 ], [ 127.076018738922883, 37.547291292450566 ], [ 127.081676118383783, 37.547291292450566 ], [ 127.081676118383783, 37.542786291189643 ], [ 127.076018738922883, 37.542786291189643 ] ] ] } },
{ "type": "Feature", "properties": { "격자번호": 66, "행번호": 5, "열번호": 5, "중심위도": 37.545038791820105, "중심경도": 127.08450480811423, "격자한변길이_m": 500, "격자전체면적_m2": 250000, "CCTV개수": 18, "가로등개수": 62, "비상벨개수": 14, "경찰서개수": 1, "지구대개수": 0, "파출소개수": 0, "전체시설개수": 95, "안전점수": 62.5, "안전등급": "B", "등급색상": "yellowgreen" }, "geometry": { "type": "Polygon", "coordinates": [ [ [ 127.081676118383783, 37.542786291189643 ], [ 127.081676118383783, 37.547291292450566 ], [ 127.087333497844682, 37.547291292450566 ], [ 127.087333497844682, 37.542786291189643 ], [ 127.081676118383783, 37.542786291189643 ] ] ] } },
{ "type": "Feature", "properties": { "격자번호": 67, "행번호": 5, "열번호": 6, "중심위도": 37.545038791820105, "중심경도": 127.09016218757513, "격자한변길이_m": 500, "격자전체면적_m2": 250000, "CCTV개수": 22, "가로등개수": 33, "비상벨개수": 21, "경찰서개수": 0, "지구대개수": 0, "파출소개수": 1, "전체시설개수": 77, "안전점수": 58.25, "안전등급": "C", "등급색상": "yellow" }, "geometry": { "type": "Polygon", "coordinates": [ [ [ 127.087333497844682, 37.542786291189643 ], [ 127.087333497844682, 37.547291292450566 ], [ 127.092990877305581, 37.547291292450566 ], [ 127.092990877305581, 37.542786291189643 ], [ 127.087333497844682, 37.542786291189643 ] ] ] } },
{ "type": "Feature", "properties": { "격자번호": 68, "행번호": 5, "열번호": 7, "중심위도": 37.545038791820105, "중심경도": 127.09581956703603, "격자한변길이_m": 500, "격자전체면적_m2": 250000, "CCTV개수": 7, "가로등개수": 42, "비상벨개수": 6, "경찰서개수": 0, "지구대개수": 0, "파출소개수": 0, "전체시설개수": 55, "안전점수": 24.0, "안전등급": "D", "등급색상": "orange" }, "geometry": { "type": "Polygon", "coordinates": [ [ [ 127.092990877305581, 37.542786291189643 ], [ 127.092990877305581, 37.547291292450566 ], [ 127.098648256766481, 37.547291292450566 ], [ 127.098648256766481, 37.542786291189643 ], [ 127.092990877305581, 37.542786291189643 ] ] ] } },
{ "type": "Feature", "properties": { "격자번호": 69, "행번호": 5, "열번호": 8, "중심위도": 37.545038791820105, "중심경도": 127.10147694649693, "격자한변길이_m": 500, "격자전체면적_m2": 250000, "CCTV개수": 21, "가로등개수": 84, "비상벨개수": 18, "경찰서개수": 0, "지구대개수": 1, "파출소개수": 0, "전체시설개수": 124, "안전점수": 70.0, "안전등급": "B", "등급색상": "yellowgreen" }, "geometry": { "type": "Polygon", "coordinates": [ [ [ 127.098648256766481, 37.542786291189643 ], [ 127.098648256766481, 37.547291292450566 ], [ 127.10430563622738, 37.547291292450566 ], [ 127.10430563622738, 37.542786291189643 ], [ 127.098648256766481, 37.542786291189643 ] ] ] } },
{ "type": "Feature", "properties": { "격자번호": 70, "행번호": 5, "열번호": 9, "중심위도": 37.545038791820105, "중심경도": 127.10713432595783, "격자한변길이_m": 500, "격자전체면적_m2": 250000, "CCTV개수": 2, "가로등개수": 65, "비상벨개수": 2, "경찰서개수": 0, "지구대개수": 0, "파출소개수": 0, "전체시설개수": 69, "안전점수": 20.25, "안전등급": "D", "등급색상": "orange" }, "geometry": { "type": "Polygon", "coordinates": [ [ [ 127.10430563622738, 37.542786291189643 ], [ 127.10430563622738, 37.547291292450566 ], [ 127.10996301568828, 37.547291292450566 ], [ 127.10996301568828, 37.544494671247215 ], [ 127.109032629813811, 37.542786291189643 ], [ 127.10430563622738, 37.542786291189643 ] ] ] } },
{ "type": "Feature", "properties": { "격자번호": 71, "행번호": 5, "열번호": 10, "중심위도": 37.545038791820105, "중심경도": 127.11279170541873, "격자한변길이_m": 500, "격자전체면적_m2": 250000, "CCTV개수": 0, "가로등개수": 0, "비상벨개수": 0, "경찰서개수": 0, "지구대개수": 0, "파출소개수": 0, "전체시설개수": 0, "안전점수": 0.0, "안전등급": "E", "등급색상": "red" }, "geometry": { "type": "Polygon", "coordinates": [ [ [ 127.10996301568828, 37.547291292450566 ], [ 127.111479151503971, 37.547291292450566 ], [ 127.111470750595174, 37.546926344180449 ], [ 127.11024346790316, 37.54500963926656 ], [ 127.10996301568828, 37.544494671247215 ], [ 127.10996301568828, 37.547291292450566 ] ] ] } },
{ "type": "Feature", "properties": { "격자번호": 75, "행번호": 6, "열번호": 2, "중심위도": 37.549543793081028, "중심경도": 127.06753266973153, "격자한변길이_m": 500, "격자전체면적_m2": 250000, "CCTV개수": 9, "가로등개수": 43, "비상벨개수": 9, "경찰서개수": 0, "지구대개수": 0, "파출소개수": 0, "전체시설개수": 61, "안전점수": 28.75, "안전등급": "D", "등급색상": "orange" }, "geometry": { "type": "Polygon", "coordinates": [ [ [ 127.070361359461984, 37.55179629371149 ], [ 127.070361359461984, 37.547291292450566 ], [ 127.066878448549915, 37.547291292450566 ], [ 127.066944682418381, 37.547406218470989 ], [ 127.067258059730108, 37.54796325353864 ], [ 127.067465772830545, 37.548329597916236 ], [ 127.067537475154353, 37.54846141792359 ], [ 127.067638509921807, 37.548645145588814 ], [ 127.068708166275371, 37.550513855041793 ], [ 127.068736921716393, 37.550564510406751 ], [ 127.068974050669638, 37.550982146644891 ], [ 127.069006212652084, 37.551045233667864 ], [ 127.069283766533601, 37.551536610253414 ], [ 127.06941753947514, 37.551772322690574 ], [ 127.069431149749533, 37.55179629371149 ], [ 127.070361359461984, 37.55179629371149 ] ] ] } },
{ "type": "Feature", "properties": { "격자번호": 76, "행번호": 6, "열번호": 3, "중심위도": 37.549543793081028, "중심경도": 127.07319004919243, "격자한변길이_m": 500, "격자전체면적_m2": 250000, "CCTV개수": 22, "가로등개수": 86, "비상벨개수": 16, "경찰서개수": 0, "지구대개수": 0, "파출소개수": 0, "전체시설개수": 124, "안전점수": 55.0, "안전등급": "C", "등급색상": "yellow" }, "geometry": { "type": "Polygon", "coordinates": [ [ [ 127.070361359461984, 37.547291292450566 ], [ 127.070361359461984, 37.55179629371149 ], [ 127.076018738922883, 37.55179629371149 ], [ 127.076018738922883, 37.547291292450566 ], [ 127.070361359461984, 37.547291292450566 ] ] ] } },
{ "type": "Feature", "properties": { "격자번호": 77, "행번호": 6, "열번호": 4, "중심위도": 37.549543793081028, "중심경도": 127.07884742865333, "격자한변길이_m": 500, "격자전체면적_m2": 250000, "CCTV개수": 1, "가로등개수": 11, "비상벨개수": 1, "경찰서개수": 0, "지구대개수": 0, "파출소개수": 0, "전체시설개수": 13, "안전점수": 4.75, "안전등급": "E", "등급색상": "red" }, "geometry": { "type": "Polygon", "coordinates": [ [ [ 127.076018738922883, 37.547291292450566 ], [ 127.076018738922883, 37.55179629371149 ], [ 127.081676118383783, 37.55179629371149 ], [ 127.081676118383783, 37.547291292450566 ], [ 127.076018738922883, 37.547291292450566 ] ] ] } },
{ "type": "Feature", "properties": { "격자번호": 78, "행번호": 6, "열번호": 5, "중심위도": 37.549543793081028, "중심경도": 127.08450480811423, "격자한변길이_m": 500, "격자전체면적_m2": 250000, "CCTV개수": 11, "가로등개수": 0, "비상벨개수": 11, "경찰서개수": 0, "지구대개수": 0, "파출소개수": 0, "전체시설개수": 22, "안전점수": 21.5, "안전등급": "D", "등급색상": "orange" }, "geometry": { "type": "Polygon", "coordinates": [ [ [ 127.081676118383783, 37.547291292450566 ], [ 127.081676118383783, 37.55179629371149 ], [ 127.087333497844682, 37.55179629371149 ], [ 127.087333497844682, 37.547291292450566 ], [ 127.081676118383783, 37.547291292450566 ] ] ] } },
{ "type": "Feature", "properties": { "격자번호": 79, "행번호": 6, "열번호": 6, "중심위도": 37.549543793081028, "중심경도": 127.09016218757513, "격자한변길이_m": 500, "격자전체면적_m2": 250000, "CCTV개수": 26, "가로등개수": 71, "비상벨개수": 24, "경찰서개수": 0, "지구대개수": 0, "파출소개수": 0, "전체시설개수": 121, "안전점수": 52.75, "안전등급": "C", "등급색상": "yellow" }, "geometry": { "type": "Polygon", "coordinates": [ [ [ 127.087333497844682, 37.547291292450566 ], [ 127.087333497844682, 37.55179629371149 ], [ 127.092990877305581, 37.55179629371149 ], [ 127.092990877305581, 37.547291292450566 ], [ 127.087333497844682, 37.547291292450566 ] ] ] } },
{ "type": "Feature", "properties": { "격자번호": 80, "행번호": 6, "열번호": 7, "중심위도": 37.549543793081028, "중심경도": 127.09581956703603, "격자한변길이_m": 500, "격자전체면적_m2": 250000, "CCTV개수": 24, "가로등개수": 47, "비상벨개수": 21, "경찰서개수": 0, "지구대개수": 0, "파출소개수": 0, "전체시설개수": 92, "안전점수": 46.75, "안전등급": "C", "등급색상": "yellow" }, "geometry": { "type": "Polygon", "coordinates": [ [ [ 127.092990877305581, 37.547291292450566 ], [ 127.092990877305581, 37.55179629371149 ], [ 127.098648256766481, 37.55179629371149 ], [ 127.098648256766481, 37.547291292450566 ], [ 127.092990877305581, 37.547291292450566 ] ] ] } },
{ "type": "Feature", "properties": { "격자번호": 81, "행번호": 6, "열번호": 8, "중심위도": 37.549543793081028, "중심경도": 127.10147694649693, "격자한변길이_m": 500, "격자전체면적_m2": 250000, "CCTV개수": 27, "가로등개수": 32, "비상벨개수": 23, "경찰서개수": 0, "지구대개수": 0, "파출소개수": 0, "전체시설개수": 82, "안전점수": 43.0, "안전등급": "C", "등급색상": "yellow" }, "geometry": { "type": "Polygon", "coordinates": [ [ [ 127.098648256766481, 37.547291292450566 ], [ 127.098648256766481, 37.55179629371149 ], [ 127.10430563622738, 37.55179629371149 ], [ 127.10430563622738, 37.547291292450566 ], [ 127.098648256766481, 37.547291292450566 ] ] ] } },
{ "type": "Feature", "properties": { "격자번호": 82, "행번호": 6, "열번호": 9, "중심위도": 37.549543793081028, "중심경도": 127.10713432595783, "격자한변길이_m": 500, "격자전체면적_m2": 250000, "CCTV개수": 18, "가로등개수": 61, "비상벨개수": 16, "경찰서개수": 0, "지구대개수": 0, "파출소개수": 0, "전체시설개수": 95, "안전점수": 47.25, "안전등급": "C", "등급색상": "yellow" }, "geometry": { "type": "Polygon", "coordinates": [ [ [ 127.10430563622738, 37.547291292450566 ], [ 127.10430563622738, 37.55179629371149 ], [ 127.10996301568828, 37.55179629371149 ], [ 127.10996301568828, 37.547291292450566 ], [ 127.10430563622738, 37.547291292450566 ] ] ] } },
{ "type": "Feature", "properties": { "격자번호": 83, "행번호": 6, "열번호": 10, "중심위도": 37.549543793081028, "중심경도": 127.11279170541873, "격자한변길이_m": 500, "격자전체면적_m2": 250000, "CCTV개수": 1, "가로등개수": 17, "비상벨개수": 1, "경찰서개수": 0, "지구대개수": 0, "파출소개수": 0, "전체시설개수": 19, "안전점수": 6.25, "안전등급": "E", "등급색상": "red" }, "geometry": { "type": "Polygon", "coordinates": [ [ [ 127.10996301568828, 37.547291292450566 ], [ 127.10996301568828, 37.55179629371149 ], [ 127.112464327732184, 37.55179629371149 ], [ 127.111549574744544, 37.550512133663482 ], [ 127.111509563406116, 37.548612431788051 ], [ 127.111479151503971, 37.547291292450566 ], [ 127.10996301568828, 37.547291292450566 ] ] ] } },
{ "type": "Feature", "properties": { "격자번호": 87, "행번호": 7, "열번호": 2, "중심위도": 37.554048794341952, "중심경도": 127.06753266973153, "격자한변길이_m": 500, "격자전체면적_m2": 250000, "CCTV개수": 1, "가로등개수": 6, "비상벨개수": 1, "경찰서개수": 0, "지구대개수": 0, "파출소개수": 0, "전체시설개수": 8, "안전점수": 3.5, "안전등급": "E", "등급색상": "red" }, "geometry": { "type": "Polygon", "coordinates": [ [ [ 127.070361359461984, 37.55179629371149 ], [ 127.069431149749533, 37.55179629371149 ], [ 127.069437126012531, 37.551806819371812 ], [ 127.069511165061712, 37.551937177150975 ], [ 127.069541440432914, 37.551990471334861 ], [ 127.069650901441733, 37.552183211226357 ], [ 127.06972790079277, 37.552307602594716 ], [ 127.06981166766883, 37.552456614070437 ], [ 127.069902280915088, 37.552617316376264 ], [ 127.069906372910054, 37.552624566980839 ], [ 127.06992080233843, 37.552649867449247 ], [ 127.069929870332587, 37.552665773690116 ], [ 127.070200964558126, 37.553146474983812 ], [ 127.070220064619846, 37.553180350126318 ], [ 127.070312723825182, 37.5533611520042 ], [ 127.070361359461984, 37.553445353930059 ], [ 127.070361359461984, 37.55179629371149 ] ] ] } },
{ "type": "Feature", "properties": { "격자번호": 88, "행번호": 7, "열번호": 3, "중심위도": 37.554048794341952, "중심경도": 127.07319004919243, "격자한변길이_m": 500, "격자전체면적_m2": 250000, "CCTV개수": 32, "가로등개수": 41, "비상벨개수": 28, "경찰서개수": 0, "지구대개수": 0, "파출소개수": 0, "전체시설개수": 101, "안전점수": 45.25, "안전등급": "C", "등급색상": "yellow" }, "geometry": { "type": "Polygon", "coordinates": [ [ [ 127.076018738922883, 37.556301294972414 ], [ 127.076018738922883, 37.55179629371149 ], [ 127.070361359461984, 37.55179629371149 ], [ 127.070361359461984, 37.553445353930059 ], [ 127.071750702724074, 37.555850696720611 ], [ 127.072004802073067, 37.556301294972414 ], [ 127.076018738922883, 37.556301294972414 ] ] ] } },
{ "type": "Feature", "properties": { "격자번호": 89, "행번호": 7, "열번호": 4, "중심위도": 37.554048794341952, "중심경도": 127.07884742865333, "격자한변길이_m": 500, "격자전체면적_m2": 250000, "CCTV개수": 34, "가로등개수": 46, "비상벨개수": 32, "경찰서개수": 0, "지구대개수": 0, "파출소개수": 0, "전체시설개수": 112, "안전점수": 46.5, "안전등급": "C", "등급색상": "yellow" }, "geometry": { "type": "Polygon", "coordinates": [ [ [ 127.076018738922883, 37.55179629371149 ], [ 127.076018738922883, 37.556301294972414 ], [ 127.081676118383783, 37.556301294972414 ], [ 127.081676118383783, 37.55179629371149 ], [ 127.076018738922883, 37.55179629371149 ] ] ] } },
{ "type": "Feature", "properties": { "격자번호": 90, "행번호": 7, "열번호": 5, "중심위도": 37.554048794341952, "중심경도": 127.08450480811423, "격자한변길이_m": 500, "격자전체면적_m2": 250000, "CCTV개수": 31, "가로등개수": 50, "비상벨개수": 28, "경찰서개수": 0, "지구대개수": 0, "파출소개수": 0, "전체시설개수": 109, "안전점수": 47.5, "안전등급": "C", "등급색상": "yellow" }, "geometry": { "type": "Polygon", "coordinates": [ [ [ 127.081676118383783, 37.55179629371149 ], [ 127.081676118383783, 37.556301294972414 ], [ 127.087333497844682, 37.556301294972414 ], [ 127.087333497844682, 37.55179629371149 ], [ 127.081676118383783, 37.55179629371149 ] ] ] } },
{ "type": "Feature", "properties": { "격자번호": 91, "행번호": 7, "열번호": 6, "중심위도": 37.554048794341952, "중심경도": 127.09016218757513, "격자한변길이_m": 500, "격자전체면적_m2": 250000, "CCTV개수": 25, "가로등개수": 55, "비상벨개수": 21, "경찰서개수": 0, "지구대개수": 0, "파출소개수": 0, "전체시설개수": 101, "안전점수": 48.75, "안전등급": "C", "등급색상": "yellow" }, "geometry": { "type": "Polygon", "coordinates": [ [ [ 127.087333497844682, 37.55179629371149 ], [ 127.087333497844682, 37.556301294972414 ], [ 127.092990877305581, 37.556301294972414 ], [ 127.092990877305581, 37.55179629371149 ], [ 127.087333497844682, 37.55179629371149 ] ] ] } },
{ "type": "Feature", "properties": { "격자번호": 92, "행번호": 7, "열번호": 7, "중심위도": 37.554048794341952, "중심경도": 127.09581956703603, "격자한변길이_m": 500, "격자전체면적_m2": 250000, "CCTV개수": 31, "가로등개수": 26, "비상벨개수": 27, "경찰서개수": 0, "지구대개수": 0, "파출소개수": 0, "전체시설개수": 84, "안전점수": 41.5, "안전등급": "C", "등급색상": "yellow" }, "geometry": { "type": "Polygon", "coordinates": [ [ [ 127.092990877305581, 37.55179629371149 ], [ 127.092990877305581, 37.556301294972414 ], [ 127.098648256766481, 37.556301294972414 ], [ 127.098648256766481, 37.55179629371149 ], [ 127.092990877305581, 37.55179629371149 ] ] ] } },
{ "type": "Feature", "properties": { "격자번호": 93, "행번호": 7, "열번호": 8, "중심위도": 37.554048794341952, "중심경도": 127.10147694649693, "격자한변길이_m": 500, "격자전체면적_m2": 250000, "CCTV개수": 39, "가로등개수": 12, "비상벨개수": 33, "경찰서개수": 0, "지구대개수": 0, "파출소개수": 0, "전체시설개수": 84, "안전점수": 38.0, "안전등급": "D", "등급색상": "orange" }, "geometry": { "type": "Polygon", "coordinates": [ [ [ 127.098648256766481, 37.55179629371149 ], [ 127.098648256766481, 37.556301294972414 ], [ 127.10430563622738, 37.556301294972414 ], [ 127.10430563622738, 37.55179629371149 ], [ 127.098648256766481, 37.55179629371149 ] ] ] } },
{ "type": "Feature", "properties": { "격자번호": 94, "행번호": 7, "열번호": 9, "중심위도": 37.554048794341952, "중심경도": 127.10713432595783, "격자한변길이_m": 500, "격자전체면적_m2": 250000, "CCTV개수": 2, "가로등개수": 4, "비상벨개수": 2, "경찰서개수": 0, "지구대개수": 0, "파출소개수": 0, "전체시설개수": 8, "안전점수": 5.0, "안전등급": "E", "등급색상": "red" }, "geometry": { "type": "Polygon", "coordinates": [ [ [ 127.10430563622738, 37.55179629371149 ], [ 127.10430563622738, 37.556301294972414 ], [ 127.10996301568828, 37.556301294972414 ], [ 127.10996301568828, 37.55179629371149 ], [ 127.10430563622738, 37.55179629371149 ] ] ] } },
{ "type": "Feature", "properties": { "격자번호": 95, "행번호": 7, "열번호": 10, "중심위도": 37.554048794341952, "중심경도": 127.11279170541873, "격자한변길이_m": 500, "격자전체면적_m2": 250000, "CCTV개수": 0, "가로등개수": 19, "비상벨개수": 0, "경찰서개수": 0, "지구대개수": 0, "파출소개수": 0, "전체시설개수": 19, "안전점수": 4.75, "안전등급": "E", "등급색상": "red" }, "geometry": { "type": "Polygon", "coordinates": [ [ [ 127.10996301568828, 37.55179629371149 ], [ 127.10996301568828, 37.556301294972414 ], [ 127.115028239382042, 37.556301294972414 ], [ 127.114820785422637, 37.555818170329601 ], [ 127.114637629768595, 37.555363715452856 ], [ 127.114483443340646, 37.555003467085847 ], [ 127.114298836456669, 37.554574610132967 ], [ 127.114189764017809, 37.554320238628378 ], [ 127.114140840641682, 37.554207634510334 ], [ 127.114088246228789, 37.554084537334738 ], [ 127.11408258513427, 37.554075298572911 ], [ 127.11407427187622, 37.554063413427961 ], [ 127.114019490658464, 37.553991134146187 ], [ 127.113958065199981, 37.553918014234284 ], [ 127.112762744298891, 37.552215220610684 ], [ 127.112464327732184, 37.55179629371149 ], [ 127.10996301568828, 37.55179629371149 ] ] ] } },
{ "type": "Feature", "properties": { "격자번호": 100, "행번호": 8, "열번호": 3, "중심위도": 37.558553795602876, "중심경도": 127.07319004919243, "격자한변길이_m": 500, "격자전체면적_m2": 250000, "CCTV개수": 17, "가로등개수": 38, "비상벨개수": 13, "경찰서개수": 0, "지구대개수": 0, "파출소개수": 0, "전체시설개수": 68, "안전점수": 40.0, "안전등급": "C", "등급색상": "yellow" }, "geometry": { "type": "Polygon", "coordinates": [ [ [ 127.076018738922883, 37.560806296233338 ], [ 127.076018738922883, 37.556301294972414 ], [ 127.072004802073067, 37.556301294972414 ], [ 127.072033995487459, 37.55635306409949 ], [ 127.072069092783622, 37.556415319564721 ], [ 127.072121534758793, 37.556508315437952 ], [ 127.072086099845407, 37.556508183451882 ], [ 127.07273852764493, 37.557652084962839 ], [ 127.072764023764876, 37.557697137092447 ], [ 127.073735710239944, 37.559413589858025 ], [ 127.073637215586999, 37.559453518844947 ], [ 127.072986895088277, 37.559717435672567 ], [ 127.072977210689814, 37.559721324798637 ], [ 127.072483463603177, 37.559919795216182 ], [ 127.072384865471648, 37.559959425891194 ], [ 127.072429622033411, 37.560060760334991 ], [ 127.072521619447528, 37.560269004796943 ], [ 127.072647804840216, 37.56061568362685 ], [ 127.072703363106129, 37.560768331800837 ], [ 127.072717178009199, 37.560806296233338 ], [ 127.076018738922883, 37.560806296233338 ] ] ] } },
{ "type": "Feature", "properties": { "격자번호": 101, "행번호": 8, "열번호": 4, "중심위도": 37.558553795602876, "중심경도": 127.07884742865333, "격자한변길이_m": 500, "격자전체면적_m2": 250000, "CCTV개수": 24, "가로등개수": 106, "비상벨개수": 21, "경찰서개수": 0, "지구대개수": 0, "파출소개수": 1, "전체시설개수": 152, "안전점수": 70.0, "안전등급": "B", "등급색상": "yellowgreen" }, "geometry": { "type": "Polygon", "coordinates": [ [ [ 127.076018738922883, 37.556301294972414 ], [ 127.076018738922883, 37.560806296233338 ], [ 127.081676118383783, 37.560806296233338 ], [ 127.081676118383783, 37.556301294972414 ], [ 127.076018738922883, 37.556301294972414 ] ] ] } },
{ "type": "Feature", "properties": { "격자번호": 102, "행번호": 8, "열번호": 5, "중심위도": 37.558553795602876, "중심경도": 127.08450480811423, "격자한변길이_m": 500, "격자전체면적_m2": 250000, "CCTV개수": 37, "가로등개수": 25, "비상벨개수": 33, "경찰서개수": 0, "지구대개수": 0, "파출소개수": 0, "전체시설개수": 95, "안전점수": 41.25, "안전등급": "C", "등급색상": "yellow" }, "geometry": { "type": "Polygon", "coordinates": [ [ [ 127.081676118383783, 37.556301294972414 ], [ 127.081676118383783, 37.560806296233338 ], [ 127.087333497844682, 37.560806296233338 ], [ 127.087333497844682, 37.556301294972414 ], [ 127.081676118383783, 37.556301294972414 ] ] ] } },
{ "type": "Feature", "properties": { "격자번호": 103, "행번호": 8, "열번호": 6, "중심위도": 37.558553795602876, "중심경도": 127.09016218757513, "격자한변길이_m": 500, "격자전체면적_m2": 250000, "CCTV개수": 23, "가로등개수": 59, "비상벨개수": 20, "경찰서개수": 0, "지구대개수": 0, "파출소개수": 0, "전체시설개수": 102, "안전점수": 49.75, "안전등급": "C", "등급색상": "yellow" }, "geometry": { "type": "Polygon", "coordinates": [ [ [ 127.087333497844682, 37.556301294972414 ], [ 127.087333497844682, 37.560806296233338 ], [ 127.092990877305581, 37.560806296233338 ], [ 127.092990877305581, 37.556301294972414 ], [ 127.087333497844682, 37.556301294972414 ] ] ] } },
{ "type": "Feature", "properties": { "격자번호": 104, "행번호": 8, "열번호": 7, "중심위도": 37.558553795602876, "중심경도": 127.09581956703603, "격자한변길이_m": 500, "격자전체면적_m2": 250000, "CCTV개수": 20, "가로등개수": 9, "비상벨개수": 20, "경찰서개수": 0, "지구대개수": 0, "파출소개수": 0, "전체시설개수": 49, "안전점수": 37.25, "안전등급": "D", "등급색상": "orange" }, "geometry": { "type": "Polygon", "coordinates": [ [ [ 127.092990877305581, 37.556301294972414 ], [ 127.092990877305581, 37.560806296233338 ], [ 127.098648256766481, 37.560806296233338 ], [ 127.098648256766481, 37.556301294972414 ], [ 127.092990877305581, 37.556301294972414 ] ] ] } },
{ "type": "Feature", "properties": { "격자번호": 105, "행번호": 8, "열번호": 8, "중심위도": 37.558553795602876, "중심경도": 127.10147694649693, "격자한변길이_m": 500, "격자전체면적_m2": 250000, "CCTV개수": 8, "가로등개수": 0, "비상벨개수": 6, "경찰서개수": 0, "지구대개수": 0, "파출소개수": 0, "전체시설개수": 14, "안전점수": 15.0, "안전등급": "E", "등급색상": "red" }, "geometry": { "type": "Polygon", "coordinates": [ [ [ 127.10430563622738, 37.556301294972414 ], [ 127.098648256766481, 37.556301294972414 ], [ 127.098648256766481, 37.560806296233338 ], [ 127.10125159393651, 37.560806296233338 ], [ 127.101353174976708, 37.560488269917812 ], [ 127.101967978105677, 37.559432816165007 ], [ 127.101968555314997, 37.559432815673937 ], [ 127.102222993042332, 37.559206711893779 ], [ 127.102168582578088, 37.559185603055262 ], [ 127.102296583440548, 37.559090547611191 ], [ 127.102706161781853, 37.559022695198578 ], [ 127.102852961067327, 37.558710763884278 ], [ 127.103906308299386, 37.557796792392992 ], [ 127.104276224161268, 37.557566196122529 ], [ 127.10430563622738, 37.557505038230566 ], [ 127.10430563622738, 37.556301294972414 ] ] ] } },
{ "type": "Feature", "properties": { "격자번호": 106, "행번호": 8, "열번호": 9, "중심위도": 37.558553795602876, "중심경도": 127.10713432595783, "격자한변길이_m": 500, "격자전체면적_m2": 250000, "CCTV개수": 1, "가로등개수": 0, "비상벨개수": 1, "경찰서개수": 0, "지구대개수": 0, "파출소개수": 0, "전체시설개수": 2, "안전점수": 2.0, "안전등급": "E", "등급색상": "red" }, "geometry": { "type": "Polygon", "coordinates": [ [ [ 127.10996301568828, 37.556301294972414 ], [ 127.10430563622738, 37.556301294972414 ], [ 127.10430563622738, 37.557505038230566 ], [ 127.104404267159467, 37.557299950296041 ], [ 127.104662352943265, 37.556808028014018 ], [ 127.104940985567708, 37.556412844431378 ], [ 127.105400440286175, 37.556333325197286 ], [ 127.106040199568554, 37.556365340419198 ], [ 127.106393151040407, 37.556459667434893 ], [ 127.106677114375216, 37.556813071390444 ], [ 127.10685768110632, 37.556931453662692 ], [ 127.107077794239871, 37.557075712773084 ], [ 127.107141371080104, 37.557104388481378 ], [ 127.107516982878295, 37.557604668776243 ], [ 127.10765131218966, 37.557709198055555 ], [ 127.1080455070189, 37.557894482974298 ], [ 127.10824002028852, 37.557995902911415 ], [ 127.108305914027213, 37.558029396187379 ], [ 127.108520684151614, 37.55822409480259 ], [ 127.10854374537719, 37.558244922799474 ], [ 127.109020618696476, 37.558349842301048 ], [ 127.109215016102212, 37.558392606312985 ], [ 127.109528567044805, 37.558553443858074 ], [ 127.10996301568828, 37.558352177782716 ], [ 127.10996301568828, 37.556301294972414 ] ] ] } },
{ "type": "Feature", "properties": { "격자번호": 107, "행번호": 8, "열번호": 10, "중심위도": 37.558553795602876, "중심경도": 127.11279170541873, "격자한변길이_m": 500, "격자전체면적_m2": 250000, "CCTV개수": 0, "가로등개수": 9, "비상벨개수": 0, "경찰서개수": 0, "지구대개수": 0, "파출소개수": 0, "전체시설개수": 9, "안전점수": 2.25, "안전등급": "E", "등급색상": "red" }, "geometry": { "type": "Polygon", "coordinates": [ [ [ 127.10996301568828, 37.556301294972414 ], [ 127.10996301568828, 37.558352177782716 ], [ 127.109987293985114, 37.558340930429104 ], [ 127.110349285909464, 37.558252588685903 ], [ 127.110826231566151, 37.558358780231835 ], [ 127.111022177173112, 37.558406972801116 ], [ 127.111421295352955, 37.558514819831707 ], [ 127.111607982373954, 37.558600465165298 ], [ 127.111794420208042, 37.558685686969881 ], [ 127.112296951635088, 37.559000229490458 ], [ 127.112742708990993, 37.558875302721837 ], [ 127.113600566119771, 37.558553748316896 ], [ 127.113654770126644, 37.558533424590394 ], [ 127.113806708018387, 37.558471544403332 ], [ 127.113869996108335, 37.558426002254187 ], [ 127.113890323340343, 37.558411368862124 ], [ 127.113917987787815, 37.558391439674281 ], [ 127.113629310321741, 37.557939985020049 ], [ 127.113560195492781, 37.557487672776631 ], [ 127.113389708935301, 37.557177930036687 ], [ 127.113381664843217, 37.557156989648497 ], [ 127.113374631178189, 37.557115451679216 ], [ 127.113374700970652, 37.557093999049535 ], [ 127.11337740273207, 37.557076769567956 ], [ 127.113385312838531, 37.557045939218106 ], [ 127.113383942405477, 37.557014973501794 ], [ 127.11338136936925, 37.556989604070452 ], [ 127.113377905942528, 37.556951558557721 ], [ 127.113368580884867, 37.556921627504344 ], [ 127.113342192079713, 37.556870962818692 ], [ 127.11332978059437, 37.556850756363424 ], [ 127.113316593677624, 37.556834208659154 ], [ 127.113962428050044, 37.556821900565112 ], [ 127.11436497937953, 37.556807587237458 ], [ 127.115225576045219, 37.556759946215919 ], [ 127.115088979853425, 37.556442749098565 ], [ 127.115028239382042, 37.556301294972414 ], [ 127.10996301568828, 37.556301294972414 ] ] ] } },
{ "type": "Feature", "properties": { "격자번호": 112, "행번호": 9, "열번호": 3, "중심위도": 37.5630587968638, "중심경도": 127.07319004919243, "격자한변길이_m": 500, "격자전체면적_m2": 250000, "CCTV개수": 4, "가로등개수": 39, "비상벨개수": 3, "경찰서개수": 0, "지구대개수": 0, "파출소개수": 0, "전체시설개수": 46, "안전점수": 17.25, "안전등급": "E", "등급색상": "red" }, "geometry": { "type": "Polygon", "coordinates": [ [ [ 127.076018738922883, 37.565311297494262 ], [ 127.076018738922883, 37.560806296233338 ], [ 127.072717178009199, 37.560806296233338 ], [ 127.07272316488185, 37.560822748626926 ], [ 127.073068351673044, 37.561766938879607 ], [ 127.073075988970402, 37.561788008388355 ], [ 127.073253962384669, 37.562278299776452 ], [ 127.073518345380378, 37.563006903846961 ], [ 127.073531211007946, 37.563038673882566 ], [ 127.073569603144946, 37.56314461577481 ], [ 127.073610865348428, 37.563257196188829 ], [ 127.073729536249857, 37.563582687010815 ], [ 127.073787731534139, 37.563742279606927 ], [ 127.073909381831484, 37.564080580458054 ], [ 127.07399145868122, 37.564308840671295 ], [ 127.074025738384776, 37.564409532151302 ], [ 127.074079507725259, 37.564567433439628 ], [ 127.074091641864541, 37.56460303305721 ], [ 127.074133974167879, 37.564650335968359 ], [ 127.074643094760575, 37.565237961922989 ], [ 127.074703841320044, 37.565311297494262 ], [ 127.076018738922883, 37.565311297494262 ] ] ] } },
{ "type": "Feature", "properties": { "격자번호": 113, "행번호": 9, "열번호": 4, "중심위도": 37.5630587968638, "중심경도": 127.07884742865333, "격자한변길이_m": 500, "격자전체면적_m2": 250000, "CCTV개수": 33, "가로등개수": 84, "비상벨개수": 27, "경찰서개수": 0, "지구대개수": 0, "파출소개수": 0, "전체시설개수": 144, "안전점수": 55.0, "안전등급": "C", "등급색상": "yellow" }, "geometry": { "type": "Polygon", "coordinates": [ [ [ 127.076018738922883, 37.560806296233338 ], [ 127.076018738922883, 37.565311297494262 ], [ 127.081676118383783, 37.565311297494262 ], [ 127.081676118383783, 37.560806296233338 ], [ 127.076018738922883, 37.560806296233338 ] ] ] } },
{ "type": "Feature", "properties": { "격자번호": 114, "행번호": 9, "열번호": 5, "중심위도": 37.5630587968638, "중심경도": 127.08450480811423, "격자한변길이_m": 500, "격자전체면적_m2": 250000, "CCTV개수": 29, "가로등개수": 82, "비상벨개수": 24, "경찰서개수": 0, "지구대개수": 0, "파출소개수": 2, "전체시설개수": 137, "안전점수": 70.0, "안전등급": "B", "등급색상": "yellowgreen" }, "geometry": { "type": "Polygon", "coordinates": [ [ [ 127.081676118383783, 37.560806296233338 ], [ 127.081676118383783, 37.565311297494262 ], [ 127.087333497844682, 37.565311297494262 ], [ 127.087333497844682, 37.560806296233338 ], [ 127.081676118383783, 37.560806296233338 ] ] ] } },
{ "type": "Feature", "properties": { "격자번호": 115, "행번호": 9, "열번호": 6, "중심위도": 37.5630587968638, "중심경도": 127.09016218757513, "격자한변길이_m": 500, "격자전체면적_m2": 250000, "CCTV개수": 13, "가로등개수": 5, "비상벨개수": 13, "경찰서개수": 0, "지구대개수": 0, "파출소개수": 0, "전체시설개수": 31, "안전점수": 25.75, "안전등급": "D", "등급색상": "orange" }, "geometry": { "type": "Polygon", "coordinates": [ [ [ 127.087333497844682, 37.560806296233338 ], [ 127.087333497844682, 37.565311297494262 ], [ 127.092990877305581, 37.565311297494262 ], [ 127.092990877305581, 37.560806296233338 ], [ 127.087333497844682, 37.560806296233338 ] ] ] } },
{ "type": "Feature", "properties": { "격자번호": 116, "행번호": 9, "열번호": 7, "중심위도": 37.5630587968638, "중심경도": 127.09581956703603, "격자한변길이_m": 500, "격자전체면적_m2": 250000, "CCTV개수": 14, "가로등개수": 7, "비상벨개수": 13, "경찰서개수": 0, "지구대개수": 0, "파출소개수": 0, "전체시설개수": 34, "안전점수": 27.75, "안전등급": "D", "등급색상": "orange" }, "geometry": { "type": "Polygon", "coordinates": [ [ [ 127.092990877305581, 37.560806296233338 ], [ 127.092990877305581, 37.565311297494262 ], [ 127.098648256766481, 37.565311297494262 ], [ 127.098648256766481, 37.560806296233338 ], [ 127.092990877305581, 37.560806296233338 ] ] ] } },
{ "type": "Feature", "properties": { "격자번호": 117, "행번호": 9, "열번호": 8, "중심위도": 37.5630587968638, "중심경도": 127.10147694649693, "격자한변길이_m": 500, "격자전체면적_m2": 250000, "CCTV개수": 1, "가로등개수": 0, "비상벨개수": 0, "경찰서개수": 0, "지구대개수": 0, "파출소개수": 0, "전체시설개수": 1, "안전점수": 1.5, "안전등급": "E", "등급색상": "red" }, "geometry": { "type": "Polygon", "coordinates": [ [ [ 127.098648256766481, 37.560806296233338 ], [ 127.098648256766481, 37.565311297494262 ], [ 127.102403957831712, 37.565311297494262 ], [ 127.102324146162729, 37.564906885460751 ], [ 127.102314222490207, 37.564312475729317 ], [ 127.101885210450789, 37.563769617104711 ], [ 127.101689907895135, 37.563261003623154 ], [ 127.101715195126815, 37.562696134248668 ], [ 127.101250820776826, 37.561605024326013 ], [ 127.101166560865053, 37.561072520817341 ], [ 127.101190906403588, 37.560996294607634 ], [ 127.10125159393651, 37.560806296233338 ], [ 127.098648256766481, 37.560806296233338 ] ] ] } },
{ "type": "Feature", "properties": { "격자번호": 124, "행번호": 10, "열번호": 3, "중심위도": 37.567563798124723, "중심경도": 127.07319004919243, "격자한변길이_m": 500, "격자전체면적_m2": 250000, "CCTV개수": 0, "가로등개수": 0, "비상벨개수": 0, "경찰서개수": 0, "지구대개수": 0, "파출소개수": 0, "전체시설개수": 0, "안전점수": 0.0, "안전등급": "E", "등급색상": "red" }, "geometry": { "type": "Polygon", "coordinates": [ [ [ 127.076018738922883, 37.565311297494262 ], [ 127.074703841320044, 37.565311297494262 ], [ 127.074823037619296, 37.565455195828164 ], [ 127.075256016776564, 37.565974787610422 ], [ 127.075725154672128, 37.566540134258716 ], [ 127.076018738922883, 37.56689364783945 ], [ 127.076018738922883, 37.565311297494262 ] ] ] } },
{ "type": "Feature", "properties": { "격자번호": 125, "행번호": 10, "열번호": 4, "중심위도": 37.567563798124723, "중심경도": 127.07884742865333, "격자한변길이_m": 500, "격자전체면적_m2": 250000, "CCTV개수": 29, "가로등개수": 77, "비상벨개수": 26, "경찰서개수": 0, "지구대개수": 0, "파출소개수": 1, "전체시설개수": 133, "안전점수": 69.25, "안전등급": "B", "등급색상": "yellowgreen" }, "geometry": { "type": "Polygon", "coordinates": [ [ [ 127.081676118383783, 37.569816298755185 ], [ 127.081676118383783, 37.565311297494262 ], [ 127.076018738922883, 37.565311297494262 ], [ 127.076018738922883, 37.56689364783945 ], [ 127.076146407583238, 37.567047377493388 ], [ 127.076177764930819, 37.567085136110798 ], [ 127.076352945091912, 37.567296081725232 ], [ 127.076805756937077, 37.567841089977861 ], [ 127.07687868389516, 37.567928880794767 ], [ 127.076883157317837, 37.567942464841693 ], [ 127.076907114001457, 37.568015213355253 ], [ 127.077024740971453, 37.568372515150031 ], [ 127.077034664367915, 37.568402646856967 ], [ 127.077506468646405, 37.569816298755185 ], [ 127.081676118383783, 37.569816298755185 ] ] ] } },
{ "type": "Feature", "properties": { "격자번호": 126, "행번호": 10, "열번호": 5, "중심위도": 37.567563798124723, "중심경도": 127.08450480811423, "격자한변길이_m": 500, "격자전체면적_m2": 250000, "CCTV개수": 37, "가로등개수": 66, "비상벨개수": 32, "경찰서개수": 0, "지구대개수": 0, "파출소개수": 0, "전체시설개수": 135, "안전점수": 51.5, "안전등급": "C", "등급색상": "yellow" }, "geometry": { "type": "Polygon", "coordinates": [ [ [ 127.081676118383783, 37.565311297494262 ], [ 127.081676118383783, 37.569816298755185 ], [ 127.087333497844682, 37.569816298755185 ], [ 127.087333497844682, 37.565311297494262 ], [ 127.081676118383783, 37.565311297494262 ] ] ] } },
{ "type": "Feature", "properties": { "격자번호": 127, "행번호": 10, "열번호": 6, "중심위도": 37.567563798124723, "중심경도": 127.09016218757513, "격자한변길이_m": 500, "격자전체면적_m2": 250000, "CCTV개수": 22, "가로등개수": 0, "비상벨개수": 18, "경찰서개수": 0, "지구대개수": 0, "파출소개수": 0, "전체시설개수": 40, "안전점수": 35.0, "안전등급": "D", "등급색상": "orange" }, "geometry": { "type": "Polygon", "coordinates": [ [ [ 127.092990877305581, 37.569816298755185 ], [ 127.092990877305581, 37.565311297494262 ], [ 127.087333497844682, 37.565311297494262 ], [ 127.087333497844682, 37.569816298755185 ], [ 127.089977525183357, 37.569816298755185 ], [ 127.090492856050176, 37.569697415952902 ], [ 127.09092154041096, 37.569816298755185 ], [ 127.092990877305581, 37.569816298755185 ] ] ] } },
{ "type": "Feature", "properties": { "격자번호": 128, "행번호": 10, "열번호": 7, "중심위도": 37.567563798124723, "중심경도": 127.09581956703603, "격자한변길이_m": 500, "격자전체면적_m2": 250000, "CCTV개수": 1, "가로등개수": 0, "비상벨개수": 1, "경찰서개수": 0, "지구대개수": 0, "파출소개수": 0, "전체시설개수": 2, "안전점수": 2.0, "안전등급": "E", "등급색상": "red" }, "geometry": { "type": "Polygon", "coordinates": [ [ [ 127.092990877305581, 37.565311297494262 ], [ 127.092990877305581, 37.569816298755185 ], [ 127.098648256766481, 37.569816298755185 ], [ 127.098648256766481, 37.565311297494262 ], [ 127.092990877305581, 37.565311297494262 ] ] ] } },
{ "type": "Feature", "properties": { "격자번호": 129, "행번호": 10, "열번호": 8, "중심위도": 37.567563798124723, "중심경도": 127.10147694649693, "격자한변길이_m": 500, "격자전체면적_m2": 250000, "CCTV개수": 2, "가로등개수": 0, "비상벨개수": 1, "경찰서개수": 0, "지구대개수": 0, "파출소개수": 0, "전체시설개수": 3, "안전점수": 3.5, "안전등급": "E", "등급색상": "red" }, "geometry": { "type": "Polygon", "coordinates": [ [ [ 127.098648256766481, 37.565311297494262 ], [ 127.098648256766481, 37.569816298755185 ], [ 127.10346323753204, 37.569816298755185 ], [ 127.103437513644579, 37.569638928565851 ], [ 127.103262413957722, 37.568848264526942 ], [ 127.10303615058082, 37.568003972264719 ], [ 127.102723261793102, 37.566929235898186 ], [ 127.102403957831712, 37.565311297494262 ], [ 127.098648256766481, 37.565311297494262 ] ] ] } },
{ "type": "Feature", "properties": { "격자번호": 137, "행번호": 11, "열번호": 4, "중심위도": 37.572068799385647, "중심경도": 127.07884742865333, "격자한변길이_m": 500, "격자전체면적_m2": 250000, "CCTV개수": 9, "가로등개수": 31, "비상벨개수": 8, "경찰서개수": 0, "지구대개수": 0, "파출소개수": 0, "전체시설개수": 48, "안전점수": 25.25, "안전등급": "D", "등급색상": "orange" }, "geometry": { "type": "Polygon", "coordinates": [ [ [ 127.081676118383783, 37.569816298755185 ], [ 127.077506468646405, 37.569816298755185 ], [ 127.077602854094849, 37.570105095356595 ], [ 127.07778141576317, 37.570624156374919 ], [ 127.077917823218002, 37.571029999214041 ], [ 127.078040266462239, 37.571394288356835 ], [ 127.078048271039748, 37.571417961124681 ], [ 127.078200847267908, 37.571869247923651 ], [ 127.078585912882517, 37.57181672189413 ], [ 127.078872559169355, 37.571791982521816 ], [ 127.079003075128753, 37.571780715680617 ], [ 127.079331305728431, 37.571752109688326 ], [ 127.079479603077246, 37.57173918179231 ], [ 127.07951799603849, 37.571735840799555 ], [ 127.079552699103772, 37.571732817578862 ], [ 127.079573027438485, 37.571731038205364 ], [ 127.079653696646162, 37.571724975258149 ], [ 127.079683861284138, 37.5717227028221 ], [ 127.079878669362728, 37.571708049765988 ], [ 127.080025689370189, 37.571696996086096 ], [ 127.080147977732366, 37.571687787701684 ], [ 127.080651452968198, 37.571632085627876 ], [ 127.080653680505492, 37.571651176062701 ], [ 127.0808951113478, 37.571612676967064 ], [ 127.080981748867856, 37.5715988515961 ], [ 127.081676118383783, 37.571530102098869 ], [ 127.081676118383783, 37.569816298755185 ] ] ] } },
{ "type": "Feature", "properties": { "격자번호": 138, "행번호": 11, "열번호": 5, "중심위도": 37.572068799385647, "중심경도": 127.08450480811423, "격자한변길이_m": 500, "격자전체면적_m2": 250000, "CCTV개수": 11, "가로등개수": 28, "비상벨개수": 10, "경찰서개수": 0, "지구대개수": 0, "파출소개수": 0, "전체시설개수": 49, "안전점수": 28.5, "안전등급": "D", "등급색상": "orange" }, "geometry": { "type": "Polygon", "coordinates": [ [ [ 127.087333497844682, 37.569816298755185 ], [ 127.081676118383783, 37.569816298755185 ], [ 127.081676118383783, 37.571530102098869 ], [ 127.082855305985163, 37.571413350782933 ], [ 127.083331589043183, 37.571369359838734 ], [ 127.083513066907884, 37.571339501350387 ], [ 127.084257727140923, 37.571204049927992 ], [ 127.085216436090917, 37.571026068806503 ], [ 127.085734141877936, 37.570918987676642 ], [ 127.086006871176366, 37.570864706530564 ], [ 127.086170503127519, 37.570831333863367 ], [ 127.086291521653223, 37.570832229107879 ], [ 127.087333497844682, 37.570839872378926 ], [ 127.087333497844682, 37.569816298755185 ] ] ] } },
{ "type": "Feature", "properties": { "격자번호": 139, "행번호": 11, "열번호": 6, "중심위도": 37.572068799385647, "중심경도": 127.09016218757513, "격자한변길이_m": 500, "격자전체면적_m2": 250000, "CCTV개수": 3, "가로등개수": 0, "비상벨개수": 3, "경찰서개수": 0, "지구대개수": 0, "파출소개수": 0, "전체시설개수": 6, "안전점수": 6.0, "안전등급": "E", "등급색상": "red" }, "geometry": { "type": "MultiPolygon", "coordinates": [ [ [ [ 127.092990877305581, 37.569816298755185 ], [ 127.09092154041096, 37.569816298755185 ], [ 127.092990877305581, 37.57039016753 ], [ 127.092990877305581, 37.569816298755185 ] ] ], [ [ [ 127.087333497844682, 37.569816298755185 ], [ 127.087333497844682, 37.570839872378926 ], [ 127.088177015639374, 37.570846059886073 ], [ 127.088185916707616, 37.570820104906346 ], [ 127.088248528626835, 37.570637545844598 ], [ 127.088281502115706, 37.570539674348382 ], [ 127.088395854375023, 37.570181159298798 ], [ 127.089252167016454, 37.569983633213674 ], [ 127.089977525183357, 37.569816298755185 ], [ 127.087333497844682, 37.569816298755185 ] ] ] ] } },
{ "type": "Feature", "properties": { "격자번호": 140, "행번호": 11, "열번호": 7, "중심위도": 37.572068799385647, "중심경도": 127.09581956703603, "격자한변길이_m": 500, "격자전체면적_m2": 250000, "CCTV개수": 0, "가로등개수": 0, "비상벨개수": 0, "경찰서개수": 0, "지구대개수": 0, "파출소개수": 0, "전체시설개수": 0, "안전점수": 0.0, "안전등급": "E", "등급색상": "red" }, "geometry": { "type": "Polygon", "coordinates": [ [ [ 127.098648256766481, 37.569816298755185 ], [ 127.092990877305581, 37.569816298755185 ], [ 127.092990877305581, 37.57039016753 ], [ 127.093372404556391, 37.570495972716458 ], [ 127.093752991167179, 37.570570863433545 ], [ 127.094788748571233, 37.570750715788407 ], [ 127.095191963374816, 37.570706239156053 ], [ 127.095604302494877, 37.570608757779496 ], [ 127.095793022552741, 37.571004546267886 ], [ 127.095837728661749, 37.571340678049012 ], [ 127.096323184542342, 37.571297267071095 ], [ 127.097399154071184, 37.571944956025021 ], [ 127.098301925710189, 37.572356123850717 ], [ 127.098542748878842, 37.57264853986149 ], [ 127.098648256766481, 37.572658986898894 ], [ 127.098648256766481, 37.569816298755185 ] ] ] } },
{ "type": "Feature", "properties": { "격자번호": 141, "행번호": 11, "열번호": 8, "중심위도": 37.572068799385647, "중심경도": 127.10147694649693, "격자한변길이_m": 500, "격자전체면적_m2": 250000, "CCTV개수": 0, "가로등개수": 0, "비상벨개수": 0, "경찰서개수": 0, "지구대개수": 0, "파출소개수": 0, "전체시설개수": 0, "안전점수": 0.0, "안전등급": "E", "등급색상": "red" }, "geometry": { "type": "Polygon", "coordinates": [ [ [ 127.098648256766481, 37.569816298755185 ], [ 127.098648256766481, 37.572658986898894 ], [ 127.099439113640102, 37.572737294895838 ], [ 127.100695893258944, 37.573593904630918 ], [ 127.100851384652842, 37.573764420882341 ], [ 127.1009678455531, 37.573449896324547 ], [ 127.101229577338898, 37.573146394246614 ], [ 127.101303685843078, 37.573008390480979 ], [ 127.101702034968127, 37.572468974387185 ], [ 127.102310910108983, 37.57222061253767 ], [ 127.103172659845384, 37.572352174689527 ], [ 127.103767799018271, 37.571963587468133 ], [ 127.104131464532941, 37.571564810247253 ], [ 127.104294979441548, 37.571451044483787 ], [ 127.104170287639732, 37.571149934811679 ], [ 127.104085665826886, 37.570921445828226 ], [ 127.103941397182624, 37.570615154193007 ], [ 127.103505823123868, 37.570109933008553 ], [ 127.10346323753204, 37.569816298755185 ], [ 127.098648256766481, 37.569816298755185 ] ] ] } }
]
}
